,LanguageName,Latitude,Longitude,WordModernName1,Phonetic,SpellingAltv1,source_csv
0,Ref. Spelling,-40.0,-75.5,ellos,fëjëŋɘn,feyengün,12-feyengün.csv
1,Santa Bárbara,-37.67405,-71.80186,ellos,ˌvë.jë.ˈŋɘn,,12-feyengün.csv
2,Cañete,-37.96722,-73.39282,ellos,cʰɪ.ˈðwɪ.ŋɘn,,12-feyengün.csv
3,Tirúa,-38.3699,-73.49067,ellos,ˈɸë.jë.ɣ̞ɐ̝,,12-feyengün.csv
4,Alto Bío Bío,-38.04457,-71.36344,ellos,m̩.ˌvë.jë.ˈŋɘn,,12-feyengün.csv
5,Ercilla,-38.04926,-72.44544,ellos,ˌfɪ.ë.ˈŋɘn,,12-feyengün.csv
6,Galvarino,-38.40865,-72.78342,ellos,fë.jë.ˈŋɘn,,12-feyengün.csv
7,Victoria,-38.35303,-72.19395,ellos,ˈvëj.ŋʊ,,12-feyengün.csv
8,Lonquimay,-38.42587,-71.37014,ellos,ˌfëj.ˈë.ŋɘn,,12-feyengün.csv
9,Chol Chol,-38.51661,-72.97454,ellos,ˌfë.jë.ˈŋɘn,,12-feyengün.csv
10,Puerto Saavedra,-38.78431,-73.39912,ellos,fë.jë.ˈŋɘn,,12-feyengün.csv
11,Truf Truf,-38.75576,-72.43983,ellos,ˌɸë.jë.ˈŋɘn,,12-feyengün.csv
12,Icalma,-38.72338,-71.1847,ellos,ˈfëj.mɘn,,12-feyengün.csv
13,Freire,-38.99144,-72.8833,ellos,ˌfë.jë.ˈŋɘn,,12-feyengün.csv
14,Cunco,-38.97601,-72.01425,ellos,ë.ˈŋɘn,,12-feyengün.csv
15,Nueva Toltén,-39.20931,-73.1312,ellos,fë.ˈjɪ.ŋɘn,,12-feyengün.csv
16,Villarrica,-39.48612,-72.3038,ellos,ˌfë.jë.ˈŋɘn,,12-feyengün.csv
17,Curarrehue,-39.46788,-71.55193,ellos,ˌfëj.ˈjë.ŋɘn,,12-feyengün.csv
18,Mariquina,-39.45147,-73.26457,ellos,ˌfë.jë.ˈŋɘn,,12-feyengün.csv
19,Lanco,-39.5046,-72.44441,ellos,hë.ˈjɘ.ŋɘn,,12-feyengün.csv
20,Panguipulli,-39.54399,-72.12614,ellos,fëj.ˈɣɘŋ,,12-feyengün.csv
21,Valdivia,-39.81291,-72.95438,ellos,ˌfë.ˈjɘ.ŋɘn,,12-feyengün.csv
22,San Pablo,-40.38308,-73.34988,ellos,ˈëj.t̪ɘn,,12-feyengün.csv
23,S. Juan de la Costa,-40.51004,-73.52129,ellos,ˈfëj.ŋɘn,,12-feyengün.csv
24,Chalileo,-36.42252,-66.47321,ellos,ëj.ˈŋɘn,,12-feyengün.csv
25,Zapala,-38.85047,-69.74997,ellos,ëj.ˈmɘn,,12-feyengün.csv
26,Junín de los Andes,-39.82386,-71.28742,ellos,fɪ.ˈŋɘn,,12-feyengün.csv
27,Huiliches,-39.63992,-71.18686,ellos,f̞ë.jë.ˈŋɘn,,12-feyengün.csv
28,Jacobacci,-41.28813,-69.55719,ellos,ëj.ˈmɘn,,12-feyengün.csv
29,Ref. Spelling,-40.0,-75.5,estrella,wɐ̝ŋɘlën,wangülen,7-wangülen.csv
30,Santa Bárbara,-37.67405,-71.80186,estrella,ˌwɐ̝ŋ.ˈɡlën,,7-wangülen.csv
31,Cañete,-37.96722,-73.39282,estrella,ˌwɐ̝ŋ.ɡɘ̆.ˈlën,,7-wangülen.csv
32,Tirúa,-38.3699,-73.49067,estrella,ˌwɐ̝.ŋɘ.ˈlën,,7-wangülen.csv
33,Alto Bío Bío,-38.04457,-71.36344,estrella,ˌwɐ̝.ŋɘ̆.ˈlën,,7-wangülen.csv
34,Angol,-37.86289,-72.68304,estrella,ˌwɐ̝ŋ.ɡɘ.ˈlën,,7-wangülen.csv
35,Lumaco,-38.17584,-72.89947,estrella,ˌwɐ̝.ŋɘ.ˈlën,,7-wangülen.csv
36,Ercilla,-38.04926,-72.44544,estrella,ˌwɐ̝.ŋɘ.ˈlën,,7-wangülen.csv
37,Galvarino,-38.40865,-72.78342,estrella,ˌwɐ̝.ŋɘ.ˈlën,,7-wangülen.csv
38,Victoria,-38.35303,-72.19395,estrella,ˈwɐ̝ŋ.ɡlën,,7-wangülen.csv
39,Lonquimay,-38.42587,-71.37014,estrella,wɐ̝ŋ.ˈɡlën,,7-wangülen.csv
40,Chol Chol,-38.51661,-72.97454,estrella,ˌwɐ̝ŋ.ɡɘ.ˈlën,,7-wangülen.csv
41,Dollinco,-38.67157,-72.82837,estrella,ˈwɐ̝.ŋɘ̆.ˌlën,,7-wangülen.csv
42,Vilcún,-38.59695,-72.31239,estrella,ˌwɐ̝.ŋɘ.ˈlën,,7-wangülen.csv
43,Puerto Saavedra,-38.78431,-73.39912,estrella,wɐ̝.ˌŋɘ.ˈlën,,7-wangülen.csv
44,Truf Truf,-38.75576,-72.43983,estrella,wɐ̝.ŋɘ.ˈlën,,7-wangülen.csv
45,Icalma,-38.72338,-71.1847,estrella,ˌwɐ̝ŋ.ɡɘ.ˈlën,,7-wangülen.csv
46,Freire,-38.99144,-72.8833,estrella,wɐ̝ŋ.ˈlën,,7-wangülen.csv
47,Cunco,-38.97601,-72.01425,estrella,wɐ̝ŋ.ˈɡlën,,7-wangülen.csv
48,Nueva Toltén,-39.20931,-73.1312,estrella,ˈwɐ̝.ŋɘ.lën,,7-wangülen.csv
49,Villarrica,-39.48612,-72.3038,estrella,ˌwɐ̝.ŋɘ.ˈlën,,7-wangülen.csv
50,Curarrehue,-39.46788,-71.55193,estrella,ˌwɐ̝.ŋɘ.ˈlën,,7-wangülen.csv
51,Mariquina,-39.45147,-73.26457,estrella,ˌwɐ̝ŋ.ˈɡlëŋ,,7-wangülen.csv
52,Lanco,-39.5046,-72.44441,estrella,ˌwɐ̝.ɣɘ.ˈlën,,7-wangülen.csv
53,Panguipulli,-39.54399,-72.12614,estrella,ˌwɐ̝.ŋɘ.ˈlën,,7-wangülen.csv
54,Valdivia,-39.81291,-72.95438,estrella,ˌwɐ̝ŋ.ɡɘ.ˈlën,,7-wangülen.csv
55,Chalileo,-36.42252,-66.47321,estrella,wɐ̝ŋ.ˈɡlën,,7-wangülen.csv
56,Picunches,-38.78279,-70.22884,estrella,wɐ̝ŋ.ˈlën,,7-wangülen.csv
57,Zapala,-38.85047,-69.74997,estrella,wɐ̝.ŋɘ.ˈlën,,7-wangülen.csv
58,Aluminé,-39.19681,-71.05406,estrella,wɐ̝ŋ.ˈlën,,7-wangülen.csv
59,Junín de los Andes,-39.82386,-71.28742,estrella,wɐ̝ŋ.ˈɡlën,,7-wangülen.csv
60,Huiliches,-39.63992,-71.18686,estrella,wɐ̝ŋ.ˈɟ͡ʝën,,7-wangülen.csv
61,Jacobacci,-41.28813,-69.55719,estrella,wɐ̝ŋ.ˈlën,,7-wangülen.csv
62,Cushamen,-42.23392,-71.34994,estrella,ˌwɐ̝.ŋɘ.ˈɮën,,7-wangülen.csv
63,Futaleufú,-42.95052,-71.18351,estrella,ˌwɐ̝.ŋɘ.ˈʝë,,7-wangülen.csv
64,Lago Rosario,-43.24408,-71.32581,estrella,ˌwɐ̝.ŋɘ.ˈljë,,7-wangülen.csv
65,Ref. Spelling,-40.0,-75.5,llorar,ŋɘmɐ̝n,ngüman,11-ngüman.csv
66,Santa Bárbara,-37.67405,-71.80186,llorar,ˌŋɘ.ˈmɐ̝.pën,,11-ngüman.csv
67,Cañete,-37.96722,-73.39282,llorar,ŋ̩.ˈmɐ̝l,,11-ngüman.csv
68,Tirúa,-38.3699,-73.49067,llorar,ŋɘ.ˈmɐ̝j,,11-ngüman.csv
69,Alto Bío Bío,-38.04457,-71.36344,llorar,ŋʊ.ˈmɐ̝n,,11-ngüman.csv
70,Angol,-37.86289,-72.68304,llorar,ŋɘ.ˈmɐ̝n,,11-ngüman.csv
71,Lumaco,-38.17584,-72.89947,llorar,ŋɘ.ˈmɐ̝j,,11-ngüman.csv
72,Ercilla,-38.04926,-72.44544,llorar,ŋɘ.ˈmɐ̝j,,11-ngüman.csv
73,Galvarino,-38.40865,-72.78342,llorar,ŋɘ.ˈmɐ̝n,,11-ngüman.csv
74,Victoria,-38.35303,-72.19395,llorar,ŋɘ.ˈmɐ̝j,,11-ngüman.csv
75,Lonquimay,-38.42587,-71.37014,llorar,ŋɘ.ˈmɐ̝n,,11-ngüman.csv
76,Chol Chol,-38.51661,-72.97454,llorar,nɘ.ˈmɐ̝n,,11-ngüman.csv
77,Dollinco,-38.67157,-72.82837,llorar,ɣɘ.ˈmɐ̝n,,11-ngüman.csv
78,Vilcún,-38.59695,-72.31239,llorar,ŋɘ.ˈmɐ̝.lö,,11-ngüman.csv
79,Puerto Saavedra,-38.78431,-73.39912,llorar,ŋɘ.ˈmɐ̝n,,11-ngüman.csv
80,Truf Truf,-38.75576,-72.43983,llorar,ŋɘ.ˈmɐ̝n,,11-ngüman.csv
81,Icalma,-38.72338,-71.1847,llorar,ŋɘ.ˈmɐ̝n,,11-ngüman.csv
82,Freire,-38.99144,-72.8833,llorar,ŋɘ.ˈmɐ̝n,,11-ngüman.csv
83,Cunco,-38.97601,-72.01425,llorar,ŋɘ.ˈmɐ̝n,,11-ngüman.csv
84,Nueva Toltén,-39.20931,-73.1312,llorar,ŋɘ.ˈmɐ̝n,,11-ngüman.csv
85,Villarrica,-39.48612,-72.3038,llorar,ŋɘ.ˈmɐ̝n,,11-ngüman.csv
86,Curarrehue,-39.46788,-71.55193,llorar,ŋɘ.ˈmɐ̝n,,11-ngüman.csv
87,Mariquina,-39.45147,-73.26457,llorar,ŋɘ.ˈmɐ̝j,,11-ngüman.csv
88,Lanco,-39.5046,-72.44441,llorar,ŋɘ.ˈmɐ̝n,,11-ngüman.csv
89,Panguipulli,-39.54399,-72.12614,llorar,ŋɘ.ˈmɐ̝n,,11-ngüman.csv
90,Valdivia,-39.81291,-72.95438,llorar,ŋɘ.ˈmɐ̝n,,11-ngüman.csv
91,San Pablo,-40.38308,-73.34988,llorar,ŋɘ.ˈmɐ̝n,,11-ngüman.csv
92,S. Juan de la Costa,-40.51004,-73.52129,llorar,ŋɘ.ˈmɐ̝n,,11-ngüman.csv
93,Chalileo,-36.42252,-66.47321,llorar,ŋɘ.ˈmɐ̝,,11-ngüman.csv
94,Picunches,-38.78279,-70.22884,llorar,ŋɘ.ˈmɐ̝j,,11-ngüman.csv
95,Zapala,-38.85047,-69.74997,llorar,ŋɘ.ˈmɐ̝n,,11-ngüman.csv
96,Aluminé,-39.19681,-71.05406,llorar,ŋɘ.ˌmɐ̝.ˈjɐ̝n,,11-ngüman.csv
97,Junín de los Andes,-39.82386,-71.28742,llorar,ɣɘ.ˈmɐ̝n,,11-ngüman.csv
98,Huiliches,-39.63992,-71.18686,llorar,ŋɘ.ˈmɐ̝n,,11-ngüman.csv
99,Jacobacci,-41.28813,-69.55719,llorar,ŋɘ.ˈmɐ̝n,,11-ngüman.csv
100,Cushamen,-42.23392,-71.34994,llorar,ŋɘ.ˈmɐ̝j,,11-ngüman.csv
101,Lago Rosario,-43.24408,-71.32581,llorar,ŋɘ.ˈmɐ̝n,,11-ngüman.csv
102,Ref. Spelling,-40.0,-75.5,bajar,nɐ̝ɣɘn,nagün,11-nagün.csv
103,Santa Bárbara,-37.67405,-71.80186,bajar,nɐ̝.ˈɣɘl,,11-nagün.csv
104,Cañete,-37.96722,-73.39282,bajar,nɐ̝ɣ,,11-nagün.csv
105,Tirúa,-38.3699,-73.49067,bajar,ˈnɐ̝.ɣ̞ɪ,,11-nagün.csv
106,Alto Bío Bío,-38.04457,-71.36344,bajar,nɐ̝.ˈɣɐ̝n,,11-nagün.csv
107,Lumaco,-38.17584,-72.89947,bajar,ˈnɐ̝.ɣɘj,,11-nagün.csv
108,Ercilla,-38.04926,-72.44544,bajar,nɐ̝.ˈɣɪ,,11-nagün.csv
109,Galvarino,-38.40865,-72.78342,bajar,nɐ̝.ˈɣɘn,,11-nagün.csv
110,Victoria,-38.35303,-72.19395,bajar,nɐ̝.ˈɪn,,11-nagün.csv
111,Lonquimay,-38.42587,-71.37014,bajar,nɐ̝.ˈɣɘn,,11-nagün.csv
112,Chol Chol,-38.51661,-72.97454,bajar,nɐ̝.ˈɣɘn,,11-nagün.csv
113,Dollinco,-38.67157,-72.82837,bajar,nɐ̝w.ˈpɐ̝n,,11-nagün.csv
114,Puerto Saavedra,-38.78431,-73.39912,bajar,nɐ̝.ˈŋɘn,,11-nagün.csv
115,Truf Truf,-38.75576,-72.43983,bajar,nɐ̝.ˈɣ̞ɘn,,11-nagün.csv
116,Icalma,-38.72338,-71.1847,bajar,ˈnɐ̝.ɣɐ̝n,,11-nagün.csv
117,Cunco,-38.97601,-72.01425,bajar,nɐ̝.ˈwɘn,,11-nagün.csv
118,Nueva Toltén,-39.20931,-73.1312,bajar,nɐ̝.ˈɣ̞ɘn,,11-nagün.csv
119,Villarrica,-39.48612,-72.3038,bajar,nɐ̝.ˈɣɘn,,11-nagün.csv
120,Curarrehue,-39.46788,-71.55193,bajar,nɐ̝.ˈɣɐ̝n,,11-nagün.csv
121,Mariquina,-39.45147,-73.26457,bajar,nɐ̝.ˈɣɘn,,11-nagün.csv
122,Lanco,-39.5046,-72.44441,bajar,nɐ̝.ˈɣɘn,,11-nagün.csv
123,Panguipulli,-39.54399,-72.12614,bajar,nɐ̝.ˈɣɐ̝n,,11-nagün.csv
124,Valdivia,-39.81291,-72.95438,bajar,nɐ̝.ˈɣɘn,,11-nagün.csv
125,S. Juan de la Costa,-40.51004,-73.52129,bajar,nɐ̝.ˈɣɪn,,11-nagün.csv
126,Chalileo,-36.42252,-66.47321,bajar,nɐ̝.ˈwɘn,,11-nagün.csv
127,Zapala,-38.85047,-69.74997,bajar,nɐ̝.ˈɣɪn,,11-nagün.csv
128,Junín de los Andes,-39.82386,-71.28742,bajar,nɐ̝.ˈɣɘn,,11-nagün.csv
129,Huiliches,-39.63992,-71.18686,bajar,nɐ̝.ˈɣɘn,,11-nagün.csv
130,Cushamen,-42.23392,-71.34994,bajar,nɐ̝.ˈɣɐ̝n,,11-nagün.csv
131,Lago Rosario,-43.24408,-71.32581,bajar,nɐ̝.ˈɣɘn,,11-nagün.csv
132,Ref. Spelling,-40.0,-75.5,cama,nɘt̪ɐ̝nt̪ʊ,nüt’ant'u,10-nüt'ant'u.csv
133,Santa Bárbara,-37.67405,-71.80186,cama,ˌŋɘ.ˈt̪ɐ̝n̪.t̪ʊ,,10-nüt'ant'u.csv
134,Tirúa,-38.3699,-73.49067,cama,nɘ̆.ˈt̪ɐ̝n̪.t̪ö,,10-nüt'ant'u.csv
135,Alto Bío Bío,-38.04457,-71.36344,cama,nɘ.ˈt̪ɐ̝n̪.t̪ö̥,,10-nüt'ant'u.csv
136,Angol,-37.86289,-72.68304,cama,nɘ.ˈt̪ɐ̝n̪.t̪ʊ,,10-nüt'ant'u.csv
137,Lumaco,-38.17584,-72.89947,cama,nɘ.ˈt̪ɐ̝n̪.t̪ö̥,,10-nüt'ant'u.csv
138,Victoria,-38.35303,-72.19395,cama,nɘ̆.ˈt̪ɐ̝n̪.t̪ʊ,,10-nüt'ant'u.csv
139,Lonquimay,-38.42587,-71.37014,cama,ŋɘ.ˈt̪ɐ̝n̪.t̪ʊ̥,,10-nüt'ant'u.csv
140,Chol Chol,-38.51661,-72.97454,cama,ŋɘ.ˈt̪ɐ̝n̪.t̪ʊ,,10-nüt'ant'u.csv
141,Dollinco,-38.67157,-72.82837,cama,ˌŋɘ.ˈt̪ɐ̝n̪.t̪ʊ,,10-nüt'ant'u.csv
142,Vilcún,-38.59695,-72.31239,cama,ˌɘ.ˈt̪ɐ̝n̪.t̪ʊ,,10-nüt'ant'u.csv
143,Puerto Saavedra,-38.78431,-73.39912,cama,ŋɘ.ˈt̪ɐ̝n̪.t̪ʊ,,10-nüt'ant'u.csv
144,Truf Truf,-38.75576,-72.43983,cama,ŋɘ̆.ˈt̪ɐ̝n̪.t̪ʊ̥,,10-nüt'ant'u.csv
145,Icalma,-38.72338,-71.1847,cama,ɘ.ˈt̪ʰɐ̝n̪.t̪ʰʊ,,10-nüt'ant'u.csv
146,Freire,-38.99144,-72.8833,cama,nɘ.ˈt̪ɐ̝n̪.t̪ʊ,,10-nüt'ant'u.csv
147,Cunco,-38.97601,-72.01425,cama,ˌŋɘ.ˈt̪ɐ̝n̪.t̪ʊ,,10-nüt'ant'u.csv
148,Nueva Toltén,-39.20931,-73.1312,cama,nɘ.ˈt̪ɐ̝n̪.t̪ʊ,,10-nüt'ant'u.csv
149,Villarrica,-39.48612,-72.3038,cama,ʊ.ˈt̪ɐ̝n̪.t̪ʊ,,10-nüt'ant'u.csv
150,Curarrehue,-39.46788,-71.55193,cama,ɣɘ.ˈt̪ɐ̝n̪.t̪ö,,10-nüt'ant'u.csv
151,Mariquina,-39.45147,-73.26457,cama,ˌnɘ.t̪ɐ̝n̪.ˈt̪ʊn,,10-nüt'ant'u.csv
152,Lanco,-39.5046,-72.44441,cama,kt̪̩.ˈt̪ɐ̝n̪.t̪ʊ̥,,10-nüt'ant'u.csv
153,Panguipulli,-39.54399,-72.12614,cama,ɣɘ.ˈt̪ɐ̝n̪.t̪ʊ,,10-nüt'ant'u.csv
154,Valdivia,-39.81291,-72.95438,cama,nɘ.ˈt̪ɐ̝n̪.t̪ʊ,,10-nüt'ant'u.csv
155,San Pablo,-40.38308,-73.34988,cama,ŋɘ.ˈt̪ɐ̝l,,10-nüt'ant'u.csv
156,S. Juan de la Costa,-40.51004,-73.52129,cama,kɘ.ˈt͡sɐ̝n̪.t̪ö,,10-nüt'ant'u.csv
157,Aluminé,-39.19681,-71.05406,cama,ŋɘ.ˈt̪ɐ̝n̪.t̪ʊ,,10-nüt'ant'u.csv
158,Junín de los Andes,-39.82386,-71.28742,cama,ŋɘ̆.ˈt̪ɐ̝n̪.t̪ʊ,,10-nüt'ant'u.csv
159,Huiliches,-39.63992,-71.18686,cama,n̩.ˈt̪ɐ̝n̪.t̪ö,,10-nüt'ant'u.csv
160,Cushamen,-42.23392,-71.34994,cama,nɘ.ˈt̪ɐ̝n̪.t̪ʊ,,10-nüt'ant'u.csv
161,Futaleufú,-42.95052,-71.18351,cama,n̩.ˈt̪ɐ̝n̪.t̪ʊ,,10-nüt'ant'u.csv
162,Lago Rosario,-43.24408,-71.32581,cama,ŋɘ.ˈt̪ɐ̝n̪.t̪öw,,10-nüt'ant'u.csv
163,Ref. Spelling,-40.0,-75.5,amigo,wën̪ɘj,wen’üy,5-wen'üy.csv
164,Santa Bárbara,-37.67405,-71.80186,amigo,ˈwë.nɪ,,5-wen'üy.csv
165,Cañete,-37.96722,-73.39282,amigo,wë.ˈnɪ,,5-wen'üy.csv
166,Tirúa,-38.3699,-73.49067,amigo,wë.ˈnɪ,,5-wen'üy.csv
167,Alto Bío Bío,-38.04457,-71.36344,amigo,wë.ˈnɪ,,5-wen'üy.csv
168,Angol,-37.86289,-72.68304,amigo,wë.ˈnɪ,,5-wen'üy.csv
169,Lumaco,-38.17584,-72.89947,amigo,ˈwë.nɪ,,5-wen'üy.csv
170,Ercilla,-38.04926,-72.44544,amigo,ˈwën.nɪ,,5-wen'üy.csv
171,Galvarino,-38.40865,-72.78342,amigo,ˈwë.nɪ,,5-wen'üy.csv
172,Victoria,-38.35303,-72.19395,amigo,wë.ˈnɪ,,5-wen'üy.csv
173,Lonquimay,-38.42587,-71.37014,amigo,ˈwë.nɪ,,5-wen'üy.csv
174,Chol Chol,-38.51661,-72.97454,amigo,bwë.ˈnɘj,,5-wen'üy.csv
175,Dollinco,-38.67157,-72.82837,amigo,wë.ˈnɪ,,5-wen'üy.csv
176,Vilcún,-38.59695,-72.31239,amigo,ˈwë.nɪ,,5-wen'üy.csv
177,Puerto Saavedra,-38.78431,-73.39912,amigo,wë.ˈn̪ɪj,,5-wen'üy.csv
178,Truf Truf,-38.75576,-72.43983,amigo,wë.ˈnɪ,,5-wen'üy.csv
179,Icalma,-38.72338,-71.1847,amigo,wë.ˈnɪ,,5-wen'üy.csv
180,Freire,-38.99144,-72.8833,amigo,wë.ˈnɘj,,5-wen'üy.csv
181,Cunco,-38.97601,-72.01425,amigo,wë.ˈnɪ,,5-wen'üy.csv
182,Nueva Toltén,-39.20931,-73.1312,amigo,ˈwë.nëj,,5-wen'üy.csv
183,Villarrica,-39.48612,-72.3038,amigo,wë.ˈnëj,,5-wen'üy.csv
184,Curarrehue,-39.46788,-71.55193,amigo,wë.ˈnëj,,5-wen'üy.csv
185,Mariquina,-39.45147,-73.26457,amigo,wë.ˈnëj,,5-wen'üy.csv
186,Lanco,-39.5046,-72.44441,amigo,wë.ˈnɘj,,5-wen'üy.csv
187,Panguipulli,-39.54399,-72.12614,amigo,wë.ˈnëj,,5-wen'üy.csv
188,Valdivia,-39.81291,-72.95438,amigo,wë.ˈnɘj,,5-wen'üy.csv
189,San Pablo,-40.38308,-73.34988,amigo,ɐ̝.ˈnɐ̝j,,5-wen'üy.csv
190,Chalileo,-36.42252,-66.47321,amigo,wë.ˈnɪ,,5-wen'üy.csv
191,Picunches,-38.78279,-70.22884,amigo,wë.ˈnɪ,,5-wen'üy.csv
192,Zapala,-38.85047,-69.74997,amigo,wë.ˈnɪ,,5-wen'üy.csv
193,Aluminé,-39.19681,-71.05406,amigo,wë.ˈnɪ,,5-wen'üy.csv
194,Junín de los Andes,-39.82386,-71.28742,amigo,wë.ˈnëj,,5-wen'üy.csv
195,Huiliches,-39.63992,-71.18686,amigo,wë.ˈnɘj,,5-wen'üy.csv
196,Jacobacci,-41.28813,-69.55719,amigo,wë.ˈnëjç,,5-wen'üy.csv
197,Cushamen,-42.23392,-71.34994,amigo,wë.ˈnɪ,,5-wen'üy.csv
198,Futaleufú,-42.95052,-71.18351,amigo,wë.ˈnɪ,,5-wen'üy.csv
199,Lago Rosario,-43.24408,-71.32581,amigo,wë.ˈnɘj,,5-wen'üy.csv
200,Ref. Spelling,-40.0,-75.5,puerta,wɘɲɪl,wüñil,10-wüñil.csv
201,Tirúa,-38.3699,-73.49067,puerta,wɪ.ˈʎɪn,,10-wüñil.csv
202,Alto Bío Bío,-38.04457,-71.36344,puerta,wɪ.ˈɲɪl,,10-wüñil.csv
203,Ercilla,-38.04926,-72.44544,puerta,öɲ.ˈmɪ,,10-wüñil.csv
204,Galvarino,-38.40865,-72.78342,puerta,wɐ̝ʎ.ˈŋɪɲ,,10-wüñil.csv
205,Victoria,-38.35303,-72.19395,puerta,wɘ.ˈʎɪɲ,,10-wüñil.csv
206,Lonquimay,-38.42587,-71.37014,puerta,wɪl.ˈɲɪɲ,,10-wüñil.csv
207,Chol Chol,-38.51661,-72.97454,puerta,wɘ.ˈɲɪl,,10-wüñil.csv
208,Truf Truf,-38.75576,-72.43983,puerta,wɪ.ˈɲɪlɬ,,10-wüñil.csv
209,Cunco,-38.97601,-72.01425,puerta,ɘ.ˈɲɪl,,10-wüñil.csv
210,Nueva Toltén,-39.20931,-73.1312,puerta,wɘl.ˈɲɪɲ,,10-wüñil.csv
211,Villarrica,-39.48612,-72.3038,puerta,ʊl.ˈɲɪn,,10-wüñil.csv
212,Mariquina,-39.45147,-73.26457,puerta,vɘ.ˈɲɪl,,10-wüñil.csv
213,Panguipulli,-39.54399,-72.12614,puerta,wɪ.ˈʎɪn,,10-wüñil.csv
214,Valdivia,-39.81291,-72.95438,puerta,ʊ.ˈɲɪl,,10-wüñil.csv
215,Picunches,-38.78279,-70.22884,puerta,wɐ̝.ˈʎen,,10-wüñil.csv
216,Aluminé,-39.19681,-71.05406,puerta,wɘl.ˈɲɪɲ,,10-wüñil.csv
217,Junín de los Andes,-39.82386,-71.28742,puerta,wɘ.ˈɲɪl,,10-wüñil.csv
218,Lago Rosario,-43.24408,-71.32581,puerta,wɪ.ˈʎɪn,,10-wüñil.csv
219,Ref. Spelling,-40.0,-75.5,mano,kʊwɘ,kuwü,4-kuwü.csv
220,Santa Bárbara,-37.67405,-71.80186,mano,ˈkʰɘ.wɘ,,4-kuwü.csv
221,Cañete,-37.96722,-73.39282,mano,ˈcʰɘ.wɘ,,4-kuwü.csv
222,Tirúa,-38.3699,-73.49067,mano,ˈkɘ.wɘ,,4-kuwü.csv
223,Alto Bío Bío,-38.04457,-71.36344,mano,kɘ.ˈwɘ,,4-kuwü.csv
224,Angol,-37.86289,-72.68304,mano,kʊ̆.ˈwɘ,,4-kuwü.csv
225,Lumaco,-38.17584,-72.89947,mano,ˈkʊ.ɻʊ,,4-kuwü.csv
226,Ercilla,-38.04926,-72.44544,mano,kʊ.ˈwɘ,,4-kuwü.csv
227,Galvarino,-38.40865,-72.78342,mano,kʊ.ˈwɘ,,4-kuwü.csv
228,Victoria,-38.35303,-72.19395,mano,kʊ.ˈwɘ,,4-kuwü.csv
229,Lonquimay,-38.42587,-71.37014,mano,kʰɘ.ˈwɘ,,4-kuwü.csv
230,Chol Chol,-38.51661,-72.97454,mano,kʊ.ˈwɘ,,4-kuwü.csv
231,Dollinco,-38.67157,-72.82837,mano,kʊ.ˈwɘ,,4-kuwü.csv
232,Vilcún,-38.59695,-72.31239,mano,kʰʊ.ˈwɘ,,4-kuwü.csv
233,Puerto Saavedra,-38.78431,-73.39912,mano,kʊ.ˈwɘ,,4-kuwü.csv
234,Truf Truf,-38.75576,-72.43983,mano,kʊ.ˈwɘ,,4-kuwü.csv
235,Icalma,-38.72338,-71.1847,mano,kɘ.ˈwɘ,,4-kuwü.csv
236,Freire,-38.99144,-72.8833,mano,kʊ.ˈwɘ,,4-kuwü.csv
237,Cunco,-38.97601,-72.01425,mano,kʰʊ.ˈwʊ,,4-kuwü.csv
238,Nueva Toltén,-39.20931,-73.1312,mano,ˈkʊ.wɘ,,4-kuwü.csv
239,Villarrica,-39.48612,-72.3038,mano,ˈkʰɘ.wɘ,,4-kuwü.csv
240,Curarrehue,-39.46788,-71.55193,mano,kʰɘ.ˈwɘ,,4-kuwü.csv
241,Mariquina,-39.45147,-73.26457,mano,kʊ,,4-kuwü.csv
242,Lanco,-39.5046,-72.44441,mano,ˈkʰɘ.wɘ,,4-kuwü.csv
243,Panguipulli,-39.54399,-72.12614,mano,kɘ.ˈwɘ,,4-kuwü.csv
244,Valdivia,-39.81291,-72.95438,mano,ˈkʰʊ.ɣʊ,,4-kuwü.csv
245,San Pablo,-40.38308,-73.34988,mano,ˈkʊ.wɘ,,4-kuwü.csv
246,S. Juan de la Costa,-40.51004,-73.52129,mano,ˈkʊ.wɘ,,4-kuwü.csv
247,Chalileo,-36.42252,-66.47321,mano,kʰɘ.ˈwɘ,,4-kuwü.csv
248,Picunches,-38.78279,-70.22884,mano,xʊ.ˈwɘ,,4-kuwü.csv
249,Zapala,-38.85047,-69.74997,mano,kʰɘ.ˈwɘ,,4-kuwü.csv
250,Aluminé,-39.19681,-71.05406,mano,kʰʊ.ˈwɘ,,4-kuwü.csv
251,Junín de los Andes,-39.82386,-71.28742,mano,kʊ.ˈwɘ,,4-kuwü.csv
252,Huiliches,-39.63992,-71.18686,mano,kʊ.ˈwɘ,,4-kuwü.csv
253,Jacobacci,-41.28813,-69.55719,mano,kʰɘ.ˈwɘ,,4-kuwü.csv
254,Cushamen,-42.23392,-71.34994,mano,kɘ.ˈwɘ,,4-kuwü.csv
255,Futaleufú,-42.95052,-71.18351,mano,xʊ.ˈwʊ,,4-kuwü.csv
256,Lago Rosario,-43.24408,-71.32581,mano,kɘ.ˈwɘ,,4-kuwü.csv
257,Ref. Spelling,-40.0,-75.5,bueno,kɘmë,küme,3-küme.csv
258,Santa Bárbara,-37.67405,-71.80186,bueno,kɘ.ˈmɪ,,3-küme.csv
259,Cañete,-37.96722,-73.39282,bueno,ˈkɘ.më,,3-küme.csv
260,Tirúa,-38.3699,-73.49067,bueno,kʰɘ.ˈmë,,3-küme.csv
261,Alto Bío Bío,-38.04457,-71.36344,bueno,ˈkɘ.më,,3-küme.csv
262,Angol,-37.86289,-72.68304,bueno,kɘ.ˈmëj,,3-küme.csv
263,Lumaco,-38.17584,-72.89947,bueno,kɘ.ˈmë,,3-küme.csv
264,Ercilla,-38.04926,-72.44544,bueno,kɘ̆.ˈmëj,,3-küme.csv
265,Galvarino,-38.40865,-72.78342,bueno,kʰɘ.ˈmë,,3-küme.csv
266,Victoria,-38.35303,-72.19395,bueno,kɘ.ˈmëj,,3-küme.csv
267,Lonquimay,-38.42587,-71.37014,bueno,kʰɘ.ˈmë,,3-küme.csv
268,Chol Chol,-38.51661,-72.97454,bueno,kʰɘ̆.ˈmë,,3-küme.csv
269,Dollinco,-38.67157,-72.82837,bueno,kʰɘ.ˈmëj,,3-küme.csv
270,Puerto Saavedra,-38.78431,-73.39912,bueno,kɘ.ˈmë,,3-küme.csv
271,Truf Truf,-38.75576,-72.43983,bueno,kʰɪ.ˈmëj,,3-küme.csv
272,Icalma,-38.72338,-71.1847,bueno,kʰɘ.ˈmɪt͡ʃ,,3-küme.csv
273,Freire,-38.99144,-72.8833,bueno,kɘ.ˈmë,,3-küme.csv
274,Cunco,-38.97601,-72.01425,bueno,kɘ̆.ˈmëj,,3-küme.csv
275,Nueva Toltén,-39.20931,-73.1312,bueno,ˈkɘ.më,,3-küme.csv
276,Villarrica,-39.48612,-72.3038,bueno,kʰɘ.ˈmë,,3-küme.csv
277,Curarrehue,-39.46788,-71.55193,bueno,kʰɘ.ˈmëj,,3-küme.csv
278,Mariquina,-39.45147,-73.26457,bueno,ˈkɘ.më,,3-küme.csv
279,Lanco,-39.5046,-72.44441,bueno,kʰɘ.ˈmëj,,3-küme.csv
280,Panguipulli,-39.54399,-72.12614,bueno,kɘ.ˈmëj,,3-küme.csv
281,Valdivia,-39.81291,-72.95438,bueno,kʰɘ.ˈmë,,3-küme.csv
282,San Pablo,-40.38308,-73.34988,bueno,ˈkʰɘ.më,,3-küme.csv
283,S. Juan de la Costa,-40.51004,-73.52129,bueno,ˈkɘ.më,,3-küme.csv
284,Chalileo,-36.42252,-66.47321,bueno,kʰɘ.ˈmë,,3-küme.csv
285,Picunches,-38.78279,-70.22884,bueno,kɘ̆.ˌmë.ˈɮɘ,,3-küme.csv
286,Zapala,-38.85047,-69.74997,bueno,kʰɘ.ˈmë,,3-küme.csv
287,Junín de los Andes,-39.82386,-71.28742,bueno,kɘ̆.ˈmë,,3-küme.csv
288,Huiliches,-39.63992,-71.18686,bueno,kɘ.ˈmë,,3-küme.csv
289,Jacobacci,-41.28813,-69.55719,bueno,kʰɘ̆.ˈmëj,,3-küme.csv
290,Cushamen,-42.23392,-71.34994,bueno,kʰɘ.ˈmë,,3-küme.csv
291,Futaleufú,-42.95052,-71.18351,bueno,kɘ.ˈmɘ,,3-küme.csv
292,Lago Rosario,-43.24408,-71.32581,bueno,kʰɘ̆.ˈmëj,,3-küme.csv
293,Ref. Spelling,-40.0,-75.5,cola,kɘl̪ën,kül’en,6-kül'en.csv
294,Santa Bárbara,-37.67405,-71.80186,cola,kɘ.ˈlën,,6-kül'en.csv
295,Cañete,-37.96722,-73.39282,cola,ˈkʰɘ.lën,,6-kül'en.csv
296,Tirúa,-38.3699,-73.49067,cola,kɘ̆.ˈlën,,6-kül'en.csv
297,Alto Bío Bío,-38.04457,-71.36344,cola,kl̩.ˈlën,,6-kül'en.csv
298,Angol,-37.86289,-72.68304,cola,ɡɘ.ˈlën,,6-kül'en.csv
299,Lumaco,-38.17584,-72.89947,cola,ˈkʰɘ.lën,,6-kül'en.csv
300,Ercilla,-38.04926,-72.44544,cola,kʰl̩.ˈlën,,6-kül'en.csv
301,Galvarino,-38.40865,-72.78342,cola,kɘ̆.ˈlën,,6-kül'en.csv
302,Victoria,-38.35303,-72.19395,cola,kɘ̆.ˈlën,,6-kül'en.csv
303,Lonquimay,-38.42587,-71.37014,cola,kʰɘ.ˈlën,,6-kül'en.csv
304,Chol Chol,-38.51661,-72.97454,cola,kʰɘ.ˈlën,,6-kül'en.csv
305,Dollinco,-38.67157,-72.82837,cola,kɘ̆.ˈlën,,6-kül'en.csv
306,Vilcún,-38.59695,-72.31239,cola,kʰɘ.ˈlën,,6-kül'en.csv
307,Puerto Saavedra,-38.78431,-73.39912,cola,kʰɘ.ˈlën,,6-kül'en.csv
308,Truf Truf,-38.75576,-72.43983,cola,kɘ̆.ˈlën,,6-kül'en.csv
309,Icalma,-38.72338,-71.1847,cola,kʰɘ.ˈlën,,6-kül'en.csv
310,Freire,-38.99144,-72.8833,cola,kɘ.ˈlën,,6-kül'en.csv
311,Cunco,-38.97601,-72.01425,cola,kɘ.ˈlën,,6-kül'en.csv
312,Nueva Toltén,-39.20931,-73.1312,cola,kɘ.ˈlën,,6-kül'en.csv
313,Villarrica,-39.48612,-72.3038,cola,kʰɘ.ˈlën,,6-kül'en.csv
314,Curarrehue,-39.46788,-71.55193,cola,kl̩.ˈlën,,6-kül'en.csv
315,Mariquina,-39.45147,-73.26457,cola,kʰɘ.ˈlën,,6-kül'en.csv
316,Lanco,-39.5046,-72.44441,cola,kʰɘ.ˈlën,,6-kül'en.csv
317,Panguipulli,-39.54399,-72.12614,cola,kɘ.ˈlën,,6-kül'en.csv
318,Valdivia,-39.81291,-72.95438,cola,kʰɘ.ˈlën,,6-kül'en.csv
319,San Pablo,-40.38308,-73.34988,cola,kʰɘ.ˈlën,,6-kül'en.csv
320,S. Juan de la Costa,-40.51004,-73.52129,cola,kʰɘ̆.ˈɮën,,6-kül'en.csv
321,Chalileo,-36.42252,-66.47321,cola,kö.ˈlën,,6-kül'en.csv
322,Picunches,-38.78279,-70.22884,cola,kʰɘ̆.ˈɮën,,6-kül'en.csv
323,Zapala,-38.85047,-69.74997,cola,kɘ.ˈlën,,6-kül'en.csv
324,Aluminé,-39.19681,-71.05406,cola,kʰɘ̆.ˈlën,,6-kül'en.csv
325,Junín de los Andes,-39.82386,-71.28742,cola,kl̩.ˈlën,,6-kül'en.csv
326,Huiliches,-39.63992,-71.18686,cola,kl̩.ˈlën,,6-kül'en.csv
327,Jacobacci,-41.28813,-69.55719,cola,kʰɘ.ˈlën,,6-kül'en.csv
328,Cushamen,-42.23392,-71.34994,cola,kʰɘ.ˈɮën,,6-kül'en.csv
329,Futaleufú,-42.95052,-71.18351,cola,kʰɘ.ˈlën,,6-kül'en.csv
330,Lago Rosario,-43.24408,-71.32581,cola,kʰɘ̆.ˈlën,,6-kül'en.csv
331,Ref. Spelling,-40.0,-75.5,cuerno,mɘt̪ɐ̝,müt’a,6-müt'a.csv
332,Santa Bárbara,-37.67405,-71.80186,cuerno,ˈmɘ.t̪ɐ̝,,6-müt'a.csv
333,Cañete,-37.96722,-73.39282,cuerno,ˈmɘ.t̪ɐ̝,,6-müt'a.csv
334,Tirúa,-38.3699,-73.49067,cuerno,mɘ̆.ˈt̪ɐ̝,,6-müt'a.csv
335,Alto Bío Bío,-38.04457,-71.36344,cuerno,mɘ.ˈt̪ɐ̝,,6-müt'a.csv
336,Angol,-37.86289,-72.68304,cuerno,ˈmɘ.t̪ɐ̝,,6-müt'a.csv
337,Lumaco,-38.17584,-72.89947,cuerno,ˈmɘ.tɐ̝,,6-müt'a.csv
338,Ercilla,-38.04926,-72.44544,cuerno,ˈmɘ.t̪ɐ̝,,6-müt'a.csv
339,Galvarino,-38.40865,-72.78342,cuerno,ˈmɘ.t̪ɐ̝,,6-müt'a.csv
340,Victoria,-38.35303,-72.19395,cuerno,ˈmɘ.t̪ɐ̝,,6-müt'a.csv
341,Lonquimay,-38.42587,-71.37014,cuerno,ˈmɘ.t̪ɐ̝,,6-müt'a.csv
342,Chol Chol,-38.51661,-72.97454,cuerno,mɘ̆.ˈt̪ɐ̝,,6-müt'a.csv
343,Dollinco,-38.67157,-72.82837,cuerno,mɘ.ˈt̪ɐ̝,,6-müt'a.csv
344,Vilcún,-38.59695,-72.31239,cuerno,mɘ.ˈt̪ɐ̝,,6-müt'a.csv
345,Puerto Saavedra,-38.78431,-73.39912,cuerno,ˈmɘ.t̪ɐ̝,,6-müt'a.csv
346,Truf Truf,-38.75576,-72.43983,cuerno,mɘ.ˈt̪ɐ̝,,6-müt'a.csv
347,Icalma,-38.72338,-71.1847,cuerno,ˈmɘ.t̪ɐ̝,,6-müt'a.csv
348,Freire,-38.99144,-72.8833,cuerno,ˈmɘ.t̪ɐ̝,,6-müt'a.csv
349,Cunco,-38.97601,-72.01425,cuerno,m̩.ˈt̪ɐ̝,,6-müt'a.csv
350,Nueva Toltén,-39.20931,-73.1312,cuerno,ˈmɘ̆.d̪ɐ̝,,6-müt'a.csv
351,Villarrica,-39.48612,-72.3038,cuerno,mɘ.ˈt̪ɐ̝,,6-müt'a.csv
352,Curarrehue,-39.46788,-71.55193,cuerno,mɘ̆.ˈt̪ɐ̝,,6-müt'a.csv
353,Mariquina,-39.45147,-73.26457,cuerno,ˈmɘ.t̪ɐ̝,,6-müt'a.csv
354,Lanco,-39.5046,-72.44441,cuerno,mɘ.ˈt̪ɐ̝,,6-müt'a.csv
355,Panguipulli,-39.54399,-72.12614,cuerno,ˈmɘ.t̪ɐ̝,,6-müt'a.csv
356,Valdivia,-39.81291,-72.95438,cuerno,ˈmɘ.t̪ɐ̝,,6-müt'a.csv
357,San Pablo,-40.38308,-73.34988,cuerno,mɘ.ˈt̪ɐ̝,,6-müt'a.csv
358,S. Juan de la Costa,-40.51004,-73.52129,cuerno,ˈmɘ̆.t̪ɐ̝,,6-müt'a.csv
359,Chalileo,-36.42252,-66.47321,cuerno,mɘ.ˈt̪ɐ̝,,6-müt'a.csv
360,Picunches,-38.78279,-70.22884,cuerno,ˈmɘz̪.t̪ɐ̝,,6-müt'a.csv
361,Zapala,-38.85047,-69.74997,cuerno,mɘ.ˈt̪ɐ̝,,6-müt'a.csv
362,Aluminé,-39.19681,-71.05406,cuerno,mɘ.ˈt̪ɐ̝,,6-müt'a.csv
363,Junín de los Andes,-39.82386,-71.28742,cuerno,mɘ̆.ˈt̪ɐ̝,,6-müt'a.csv
364,Huiliches,-39.63992,-71.18686,cuerno,mɘ.ˈt̪ɐ̝,,6-müt'a.csv
365,Jacobacci,-41.28813,-69.55719,cuerno,mɘ.ˈt̪ɐ̝,,6-müt'a.csv
366,Cushamen,-42.23392,-71.34994,cuerno,mɘ.ˈt̪ɐ̝,,6-müt'a.csv
367,Futaleufú,-42.95052,-71.18351,cuerno,m̩.ˈt̪ɐ̝,,6-müt'a.csv
368,Lago Rosario,-43.24408,-71.32581,cuerno,mɘ.ˈt̪ɐ̝,,6-müt'a.csv
369,Ref. Spelling,-40.0,-75.5,cochayuyo,mɘŋʊ,müngu,7-müngu.csv
370,Santa Bárbara,-37.67405,-71.80186,cochayuyo,ˈmɘ.ŋʊ,,7-müngu.csv
371,Cañete,-37.96722,-73.39282,cochayuyo,mɘ.ˈŋʊ,,7-müngu.csv
372,Angol,-37.86289,-72.68304,cochayuyo,mɐ̝.ˈŋʊ,,7-müngu.csv
373,Lumaco,-38.17584,-72.89947,cochayuyo,ˈmɘ.ɲö,,7-müngu.csv
374,Ercilla,-38.04926,-72.44544,cochayuyo,mɘŋ,,7-müngu.csv
375,Truf Truf,-38.75576,-72.43983,cochayuyo,ˈmʊ.ŋʊ,,7-müngu.csv
376,Nueva Toltén,-39.20931,-73.1312,cochayuyo,ˈmɘ.nʊ,,7-müngu.csv
377,Mariquina,-39.45147,-73.26457,cochayuyo,ˈmʊŋ.ɡʊ,,7-müngu.csv
378,Panguipulli,-39.54399,-72.12614,cochayuyo,ˈmʊ.ŋö,,7-müngu.csv
379,Valdivia,-39.81291,-72.95438,cochayuyo,ˈmɘ.ŋɘ,,7-müngu.csv
380,San Pablo,-40.38308,-73.34988,cochayuyo,ˈmɘ.ŋɘ,,7-müngu.csv
381,S. Juan de la Costa,-40.51004,-73.52129,cochayuyo,ˈmɘ.ŋʊ,,7-müngu.csv
382,Ref. Spelling,-40.0,-75.5,dia,ɐ̝ntɘ,antü,13-antü.csv
383,Santa Bárbara,-37.67405,-71.80186,dia,ˈɐ̝n̪.t̪ɘ,,13-antü.csv
384,Cañete,-37.96722,-73.39282,dia,ˈɐ̝n̪.t̪ɘ,,13-antü.csv
385,Tirúa,-38.3699,-73.49067,dia,ˈɐ̝n̪.t̪ʰɘ,,13-antü.csv
386,Alto Bío Bío,-38.04457,-71.36344,dia,ˈɐ̝n̪.t̪ɘ,,13-antü.csv
387,Angol,-37.86289,-72.68304,dia,ɐ̝n̪.ˈt̪ɘ,,13-antü.csv
388,Ercilla,-38.04926,-72.44544,dia,ˈɐ̝n̪.t̪ë,,13-antü.csv
389,Galvarino,-38.40865,-72.78342,dia,ˈɐ̝n̪.t̪ɘ,,13-antü.csv
390,Victoria,-38.35303,-72.19395,dia,ˈɐ̝n̪.t̪ɘ,,13-antü.csv
391,Lonquimay,-38.42587,-71.37014,dia,ɐ̝n̪.ˈt̪ɘx,,13-antü.csv
392,Chol Chol,-38.51661,-72.97454,dia,ɐ̝n̪.ˈt̪ɘ,,13-antü.csv
393,Dollinco,-38.67157,-72.82837,dia,ɐ̝n̪.ˈt̪ɘ,,13-antü.csv
394,Vilcún,-38.59695,-72.31239,dia,ɐ̝n̪.ˈt̪ɘ,,13-antü.csv
395,Puerto Saavedra,-38.78431,-73.39912,dia,ɐ̝n̪.ˈt̪ɘ,,13-antü.csv
396,Truf Truf,-38.75576,-72.43983,dia,ɐ̝n̪.ˈt̪ɘ,,13-antü.csv
397,Icalma,-38.72338,-71.1847,dia,ɐ̝n̪.ˈt̪ɘ,,13-antü.csv
398,Freire,-38.99144,-72.8833,dia,ɐ̝n̪.ˈt̪ɘ,,13-antü.csv
399,Cunco,-38.97601,-72.01425,dia,ɐ̝n̪.ˈt̪ʊ,,13-antü.csv
400,Nueva Toltén,-39.20931,-73.1312,dia,ɐ̝n̪.ˈd̪ɘ,,13-antü.csv
401,Villarrica,-39.48612,-72.3038,dia,ɐ̝n̪.ˈt̪ɘ,,13-antü.csv
402,Mariquina,-39.45147,-73.26457,dia,ˈɐ̝n̪.t̪ɘ,,13-antü.csv
403,Lanco,-39.5046,-72.44441,dia,ɐ̝n̪.ˈt̪ɘ,,13-antü.csv
404,Panguipulli,-39.54399,-72.12614,dia,ˈɐ̝n.tɘ,,13-antü.csv
405,Valdivia,-39.81291,-72.95438,dia,ˈɐ̝n̪.t̪ɘ,,13-antü.csv
406,San Pablo,-40.38308,-73.34988,dia,ˈɐ̝n.tʊ,,13-antü.csv
407,S. Juan de la Costa,-40.51004,-73.52129,dia,ˈɐ̝n̪.t̪ɘ,,13-antü.csv
408,Chalileo,-36.42252,-66.47321,dia,ɐ̝n̪.t̪ɘ,,13-antü.csv
409,Picunches,-38.78279,-70.22884,dia,ɐ̝n̪.ˈt̪ɘ,,13-antü.csv
410,Zapala,-38.85047,-69.74997,dia,ˈɐ̝n̪.t̪ɘ,,13-antü.csv
411,Aluminé,-39.19681,-71.05406,dia,ɐ̝n̪.ˈt̪ʊ,,13-antü.csv
412,Junín de los Andes,-39.82386,-71.28742,dia,ɐ̝n̪.ˈt̪ɘ,,13-antü.csv
413,Huiliches,-39.63992,-71.18686,dia,ɐ̝n̪.ˈt̪ɘ,,13-antü.csv
414,Jacobacci,-41.28813,-69.55719,dia,ɐ̝n̪.ˈt̪ɘ,,13-antü.csv
415,Cushamen,-42.23392,-71.34994,dia,ɐ̝n̪.ˈt̪ɘ,,13-antü.csv
416,Ref. Spelling,-40.0,-75.5,rojo,këlɘ,kelü,2-kelü.csv
417,Santa Bárbara,-37.67405,-71.80186,rojo,ˈkʰë.lɘ,,2-kelü.csv
418,Cañete,-37.96722,-73.39282,rojo,ˈcʰë.lɘ,,2-kelü.csv
419,Tirúa,-38.3699,-73.49067,rojo,ˈcʰë.lë,,2-kelü.csv
420,Alto Bío Bío,-38.04457,-71.36344,rojo,kʰë.ˈlɘ,,2-kelü.csv
421,Angol,-37.86289,-72.68304,rojo,kʰë.ˈlɘ,,2-kelü.csv
422,Lumaco,-38.17584,-72.89947,rojo,ˈkʰël.lɪ,,2-kelü.csv
423,Ercilla,-38.04926,-72.44544,rojo,kʰë.ˈlɪ,,2-kelü.csv
424,Galvarino,-38.40865,-72.78342,rojo,ˈcʰë.lʊ,,2-kelü.csv
425,Victoria,-38.35303,-72.19395,rojo,kʰë.ˈlɘ,,2-kelü.csv
426,Lonquimay,-38.42587,-71.37014,rojo,ˈcʰë.lɘ,,2-kelü.csv
427,Chol Chol,-38.51661,-72.97454,rojo,cʰë.ˈlɘ,,2-kelü.csv
428,Dollinco,-38.67157,-72.82837,rojo,cʰë.ˈlɘ,,2-kelü.csv
429,Vilcún,-38.59695,-72.31239,rojo,kë.ˈlɘɻ,,2-kelü.csv
430,Puerto Saavedra,-38.78431,-73.39912,rojo,cʰë.ˈlɘ,,2-kelü.csv
431,Truf Truf,-38.75576,-72.43983,rojo,kʰë.ˈlɘ,,2-kelü.csv
432,Icalma,-38.72338,-71.1847,rojo,kë.ˈlɘ,,2-kelü.csv
433,Freire,-38.99144,-72.8833,rojo,kʰë.ˈlɘ,,2-kelü.csv
434,Cunco,-38.97601,-72.01425,rojo,kʰë.ˈlʊ,,2-kelü.csv
435,Nueva Toltén,-39.20931,-73.1312,rojo,ˈkë.lɘ,,2-kelü.csv
436,Villarrica,-39.48612,-72.3038,rojo,kʰë.ˈlɘ,,2-kelü.csv
437,Curarrehue,-39.46788,-71.55193,rojo,kʰë.ˈlɘ,,2-kelü.csv
438,Mariquina,-39.45147,-73.26457,rojo,ˈkʰë.lɪ,,2-kelü.csv
439,Lanco,-39.5046,-72.44441,rojo,ˈkʰë.lɘ,,2-kelü.csv
440,Panguipulli,-39.54399,-72.12614,rojo,ˈcʰë.lɘ,,2-kelü.csv
441,Valdivia,-39.81291,-72.95438,rojo,ˈkʰë.lɪ,,2-kelü.csv
442,San Pablo,-40.38308,-73.34988,rojo,ˈkʰëj.ʝʊ,,2-kelü.csv
443,S. Juan de la Costa,-40.51004,-73.52129,rojo,ˈkʰë.ɮɪ,,2-kelü.csv
444,Chalileo,-36.42252,-66.47321,rojo,kʰë.ˈlʊ,,2-kelü.csv
445,Picunches,-38.78279,-70.22884,rojo,xë.ˈlɘ,,2-kelü.csv
446,Zapala,-38.85047,-69.74997,rojo,kö.ˈlɘ,,2-kelü.csv
447,Aluminé,-39.19681,-71.05406,rojo,cʰë.ˈlɘ,,2-kelü.csv
448,Junín de los Andes,-39.82386,-71.28742,rojo,cë.ˈlɘ,,2-kelü.csv
449,Huiliches,-39.63992,-71.18686,rojo,cʰë.ˈlɘ,,2-kelü.csv
450,Jacobacci,-41.28813,-69.55719,rojo,cʰë.ˈlɘ,,2-kelü.csv
451,Cushamen,-42.23392,-71.34994,rojo,kʰë.ˈlɘ,,2-kelü.csv
452,Futaleufú,-42.95052,-71.18351,rojo,kʰë.ˈlʊ,,2-kelü.csv
453,Lago Rosario,-43.24408,-71.32581,rojo,cʰë.ˈlɘ,,2-kelü.csv
454,Ref. Spelling,-40.0,-75.5,hoja,tɐ̝pɘl̪,tapül’,7-tapül.csv
455,Santa Bárbara,-37.67405,-71.80186,hoja,t̪ɐ̝.ˈpɘl,,7-tapül.csv
456,Cañete,-37.96722,-73.39282,hoja,t̪ɐ̝.ˈpɘ̆l,,7-tapül.csv
457,Tirúa,-38.3699,-73.49067,hoja,ˈt̪ɐ̝.pɘlɬ,,7-tapül.csv
458,Alto Bío Bío,-38.04457,-71.36344,hoja,tɐ̝.pɘlɬ,,7-tapül.csv
459,Angol,-37.86289,-72.68304,hoja,t̪ɐ̝.ˈpɘlɬ,,7-tapül.csv
460,Lumaco,-38.17584,-72.89947,hoja,t̪ɐ̝.ˈpɘl,,7-tapül.csv
461,Ercilla,-38.04926,-72.44544,hoja,t̪ɐ̝.ˈpɘɬ,,7-tapül.csv
462,Galvarino,-38.40865,-72.78342,hoja,t̪ɐ̝.ˈpɘl,,7-tapül.csv
463,Victoria,-38.35303,-72.19395,hoja,t̪ɐ̝.ˈpɘl,,7-tapül.csv
464,Lonquimay,-38.42587,-71.37014,hoja,t̪ɐ̝.ˈpɘl,,7-tapül.csv
465,Chol Chol,-38.51661,-72.97454,hoja,t̪ɐ̝.ˈpɘ̆l̠,,7-tapül.csv
466,Dollinco,-38.67157,-72.82837,hoja,t̪ɐ̝.ˈpɘl,,7-tapül.csv
467,Vilcún,-38.59695,-72.31239,hoja,t̪ɐ̝.ˈpɘl,,7-tapül.csv
468,Puerto Saavedra,-38.78431,-73.39912,hoja,tɐ̝.ˈpɘl̪,,7-tapül.csv
469,Truf Truf,-38.75576,-72.43983,hoja,t̪ɐ̝.ˈɸɘl,,7-tapül.csv
470,Icalma,-38.72338,-71.1847,hoja,t̪ɐ̝.ˈpɘl,,7-tapül.csv
471,Freire,-38.99144,-72.8833,hoja,t̪ɐ̝.ˈpɘl,,7-tapül.csv
472,Cunco,-38.97601,-72.01425,hoja,t̪ɐ̝.ˈpɘl,,7-tapül.csv
473,Nueva Toltén,-39.20931,-73.1312,hoja,t̪ɐ̝.ˈbɘl,,7-tapül.csv
474,Villarrica,-39.48612,-72.3038,hoja,t̪ɐ̝.ˈpl̩,,7-tapül.csv
475,Curarrehue,-39.46788,-71.55193,hoja,t̪ɐ̝.ˈpɘ̆l,,7-tapül.csv
476,Mariquina,-39.45147,-73.26457,hoja,t̪ɐ̝.ˈpɘl,,7-tapül.csv
477,Lanco,-39.5046,-72.44441,hoja,t̪ɐ̝.ˈpɘl,,7-tapül.csv
478,Panguipulli,-39.54399,-72.12614,hoja,t̪ɐ̝.ˈpɘl,,7-tapül.csv
479,Valdivia,-39.81291,-72.95438,hoja,t̪ɐ̝.ˈpɘl,,7-tapül.csv
480,San Pablo,-40.38308,-73.34988,hoja,t̪ɐ̝.ˈpɘl,,7-tapül.csv
481,S. Juan de la Costa,-40.51004,-73.52129,hoja,ˈt̪ɐ̝.pɘɬ,,7-tapül.csv
482,Chalileo,-36.42252,-66.47321,hoja,t̪ɐ̝.ˈpɘl,,7-tapül.csv
483,Picunches,-38.78279,-70.22884,hoja,t̪ɐ̝.ˈɸɘɬ,,7-tapül.csv
484,Aluminé,-39.19681,-71.05406,hoja,t̪ɐ̝.ˈpɘl,,7-tapül.csv
485,Junín de los Andes,-39.82386,-71.28742,hoja,t̪ɐ̝.ˈpɘl,,7-tapül.csv
486,Huiliches,-39.63992,-71.18686,hoja,t̪ɐ̝.ˈpɘl,,7-tapül.csv
487,Cushamen,-42.23392,-71.34994,hoja,t̪ɐ̝.ˈpɘ̆l,,7-tapül.csv
488,Lago Rosario,-43.24408,-71.32581,hoja,t̪ɐ̝.ˈpɘl,,7-tapül.csv
489,Ref. Spelling,-40.0,-75.5,tengo_hambre,ŋɘɲëɲ,ngüñeñ,11-ngüñeñ.csv
490,Santa Bárbara,-37.67405,-71.80186,tengo_hambre,ˌŋɘ.ˈɲɘn,,11-ngüñeñ.csv
491,Cañete,-37.96722,-73.39282,tengo_hambre,ɘ.ˈɲɘn,,11-ngüñeñ.csv
492,Tirúa,-38.3699,-73.49067,tengo_hambre,ŋɘ.ˈɲɘn,,11-ngüñeñ.csv
493,Alto Bío Bío,-38.04457,-71.36344,tengo_hambre,ŋɘ.ˈɲën,,11-ngüñeñ.csv
494,Angol,-37.86289,-72.68304,tengo_hambre,ŋɘ.ˈɲën,,11-ngüñeñ.csv
495,Lumaco,-38.17584,-72.89947,tengo_hambre,ˈŋë.nɪ,,11-ngüñeñ.csv
496,Ercilla,-38.04926,-72.44544,tengo_hambre,ˌnɐ̝.ŋɘ.ˈɲɪɲ,,11-ngüñeñ.csv
497,Galvarino,-38.40865,-72.78342,tengo_hambre,ŋɘ.ˌɲɘ.ˈlën,,11-ngüñeñ.csv
498,Victoria,-38.35303,-72.19395,tengo_hambre,ŋɘ.ˈɲën,,11-ngüñeñ.csv
499,Lonquimay,-38.42587,-71.37014,tengo_hambre,ŋɘ.ˈɲën,,11-ngüñeñ.csv
500,Chol Chol,-38.51661,-72.97454,tengo_hambre,ŋɘ.ˈɲɪn,,11-ngüñeñ.csv
501,Dollinco,-38.67157,-72.82837,tengo_hambre,ŋɘ.ˈɲɘn,,11-ngüñeñ.csv
502,Vilcún,-38.59695,-72.31239,tengo_hambre,ŋɘ.ˈɲën,,11-ngüñeñ.csv
503,Puerto Saavedra,-38.78431,-73.39912,tengo_hambre,ŋɘ.ˈɲëɲ,,11-ngüñeñ.csv
504,Truf Truf,-38.75576,-72.43983,tengo_hambre,ŋɘ.ˈɲɪn,,11-ngüñeñ.csv
505,Icalma,-38.72338,-71.1847,tengo_hambre,ŋɘ.ˈɲën,,11-ngüñeñ.csv
506,Freire,-38.99144,-72.8833,tengo_hambre,ŋɘ.ˌɲɘ.ˈlën,,11-ngüñeñ.csv
507,Cunco,-38.97601,-72.01425,tengo_hambre,ˌnɐ̝.ŋɘ.ˈjɪn,,11-ngüñeñ.csv
508,Nueva Toltén,-39.20931,-73.1312,tengo_hambre,ŋɘ.ˈɲɘɲ,,11-ngüñeñ.csv
509,Villarrica,-39.48612,-72.3038,tengo_hambre,ŋɘ.ˈɲën,,11-ngüñeñ.csv
510,Curarrehue,-39.46788,-71.55193,tengo_hambre,ŋɘ.ˈjën,,11-ngüñeñ.csv
511,Mariquina,-39.45147,-73.26457,tengo_hambre,ɲ̠ɪ.ˈɲɪn,,11-ngüñeñ.csv
512,Lanco,-39.5046,-72.44441,tengo_hambre,ŋɘ.ɲɘ.ˈlën,,11-ngüñeñ.csv
513,Panguipulli,-39.54399,-72.12614,tengo_hambre,ŋɘ.ˈɲɘn,,11-ngüñeñ.csv
514,Valdivia,-39.81291,-72.95438,tengo_hambre,ŋɘ.jɘ.ˈlën,,11-ngüñeñ.csv
515,Chalileo,-36.42252,-66.47321,tengo_hambre,ŋɘ.ˈɲëɲ,,11-ngüñeñ.csv
516,Picunches,-38.78279,-70.22884,tengo_hambre,ŋɘ.ˈɲën,,11-ngüñeñ.csv
517,Zapala,-38.85047,-69.74997,tengo_hambre,ŋɘ.ˈɲën,,11-ngüñeñ.csv
518,Aluminé,-39.19681,-71.05406,tengo_hambre,ŋɘ.ˈɲën,,11-ngüñeñ.csv
519,Junín de los Andes,-39.82386,-71.28742,tengo_hambre,ɣɘ.ˈɲën,,11-ngüñeñ.csv
520,Huiliches,-39.63992,-71.18686,tengo_hambre,ŋɘ.ˈɲën,,11-ngüñeñ.csv
521,Jacobacci,-41.28813,-69.55719,tengo_hambre,ŋɘ.ˈjɘn,,11-ngüñeñ.csv
522,Cushamen,-42.23392,-71.34994,tengo_hambre,ŋɘ.ˈɲën,,11-ngüñeñ.csv
523,Futaleufú,-42.95052,-71.18351,tengo_hambre,ˌnɐ̝.ŋɘ.ˈɲɪn,,11-ngüñeñ.csv
524,Lago Rosario,-43.24408,-71.32581,tengo_hambre,ŋɘ.ˈɲɘn,,11-ngüñeñ.csv
525,Ref. Spelling,-40.0,-75.5,negro,kʊʐɘ,kurü,2-kurü.csv
526,Santa Bárbara,-37.67405,-71.80186,negro,ˈkʊ.ɻɘ,,2-kurü.csv
527,Cañete,-37.96722,-73.39282,negro,ˈkʊ.ʐɘ,,2-kurü.csv
528,Tirúa,-38.3699,-73.49067,negro,ˈkʊ.ɻɘ,,2-kurü.csv
529,Alto Bío Bío,-38.04457,-71.36344,negro,ˈkʊ.ɻɘ,,2-kurü.csv
530,Angol,-37.86289,-72.68304,negro,kö.ˈɻɘ,,2-kurü.csv
531,Lumaco,-38.17584,-72.89947,negro,xwɘɻ,,2-kurü.csv
532,Ercilla,-38.04926,-72.44544,negro,kʊ.ˈɻɘ,,2-kurü.csv
533,Galvarino,-38.40865,-72.78342,negro,ˈkʊ.ɻɘ,,2-kurü.csv
534,Victoria,-38.35303,-72.19395,negro,kʊ.ˈɻɘ,,2-kurü.csv
535,Lonquimay,-38.42587,-71.37014,negro,ˈkʰʊ.ɻɘ,,2-kurü.csv
536,Chol Chol,-38.51661,-72.97454,negro,kʊ.ˈɻɘ,,2-kurü.csv
537,Dollinco,-38.67157,-72.82837,negro,kʊ.ˈʐɘ,,2-kurü.csv
538,Vilcún,-38.59695,-72.31239,negro,kʊ̆.ˈɻɘ,,2-kurü.csv
539,Puerto Saavedra,-38.78431,-73.39912,negro,kʊ.ˈʐɘ,,2-kurü.csv
540,Truf Truf,-38.75576,-72.43983,negro,kʊ.ˈr̝ɘ,,2-kurü.csv
541,Icalma,-38.72338,-71.1847,negro,kʊ.ˈɻɘ,,2-kurü.csv
542,Freire,-38.99144,-72.8833,negro,kʰʊ.ˈɻɘ,,2-kurü.csv
543,Cunco,-38.97601,-72.01425,negro,kʊ.ˈʐɘ,,2-kurü.csv
544,Nueva Toltén,-39.20931,-73.1312,negro,ˈhʊ.ɻɘ,,2-kurü.csv
545,Villarrica,-39.48612,-72.3038,negro,kʊ.ˈɻɘ,,2-kurü.csv
546,Curarrehue,-39.46788,-71.55193,negro,kʊ.ˈɻɘ,,2-kurü.csv
547,Mariquina,-39.45147,-73.26457,negro,kʊɻ,,2-kurü.csv
548,Lanco,-39.5046,-72.44441,negro,ˈkʰʊ.ʐʊ,,2-kurü.csv
549,Panguipulli,-39.54399,-72.12614,negro,ˈkʊ.ʐɘ,,2-kurü.csv
550,Valdivia,-39.81291,-72.95438,negro,ˈkʊ.ɻɪ,,2-kurü.csv
551,San Pablo,-40.38308,-73.34988,negro,ˈkʉ.ʂɘ,,2-kurü.csv
552,S. Juan de la Costa,-40.51004,-73.52129,negro,ˈkʊ.ʂɘ,,2-kurü.csv
553,Chalileo,-36.42252,-66.47321,negro,kʊ.ˈɻɘ,,2-kurü.csv
554,Picunches,-38.78279,-70.22884,negro,xʊ.ˈɻɘ,,2-kurü.csv
555,Zapala,-38.85047,-69.74997,negro,kʊ.ˈʐɘ,,2-kurü.csv
556,Aluminé,-39.19681,-71.05406,negro,kʊ.ˈʐʊ,,2-kurü.csv
557,Junín de los Andes,-39.82386,-71.28742,negro,x̞ʊ.ˈɻɘ,,2-kurü.csv
558,Huiliches,-39.63992,-71.18686,negro,kʊ.ˈɻɘ,,2-kurü.csv
559,Jacobacci,-41.28813,-69.55719,negro,kʊ.ˈʐɘ,,2-kurü.csv
560,Cushamen,-42.23392,-71.34994,negro,kʊ.ˈʐɘ,,2-kurü.csv
561,Futaleufú,-42.95052,-71.18351,negro,kʰʊ.ˈʐʊ,,2-kurü.csv
562,Lago Rosario,-43.24408,-71.32581,negro,kʊ.ˈɻɘ,,2-kurü.csv
563,Ref. Spelling,-40.0,-75.5,nube,ʈʂömɘ,tromü,8-tromü.csv
564,Santa Bárbara,-37.67405,-71.80186,nube,ɖö.ˈmɘ,,8-tromü.csv
565,Cañete,-37.96722,-73.39282,nube,ˈt͡ɹ̝̥ö.mɘ,,8-tromü.csv
566,Alto Bío Bío,-38.04457,-71.36344,nube,t̺͡s̺ö.ˈmɘ,,8-tromü.csv
567,Angol,-37.86289,-72.68304,nube,ˈʈ͡ʂö.mɘ,,8-tromü.csv
568,Lumaco,-38.17584,-72.89947,nube,ˈʈ͡ʂö.mʊ,,8-tromü.csv
569,Galvarino,-38.40865,-72.78342,nube,ˈt͡ɹ̝̥ö.mɘ,,8-tromü.csv
570,Victoria,-38.35303,-72.19395,nube,ʈ͡ʂö.ˈmɘ,,8-tromü.csv
571,Lonquimay,-38.42587,-71.37014,nube,ˈʈ͡ʂö.mɘɘ̥̯,,8-tromü.csv
572,Chol Chol,-38.51661,-72.97454,nube,ʈ͡ʂö.ˈmʊ,,8-tromü.csv
573,Dollinco,-38.67157,-72.82837,nube,t̺ö.ˈmɘ,,8-tromü.csv
574,Vilcún,-38.59695,-72.31239,nube,ʈ͡ʂö.ˈmɘ,,8-tromü.csv
575,Puerto Saavedra,-38.78431,-73.39912,nube,t̺͡s̺ö.mʊ,,8-tromü.csv
576,Truf Truf,-38.75576,-72.43983,nube,ˈʈ͡ʂö.mʊ,,8-tromü.csv
577,Icalma,-38.72338,-71.1847,nube,ʈ͡ʂö.ˈmɘ,,8-tromü.csv
578,Freire,-38.99144,-72.8833,nube,ʈ͡ʂö.ˈmɘ,,8-tromü.csv
579,Nueva Toltén,-39.20931,-73.1312,nube,ˈʈ͡ʂö.mɘ,,8-tromü.csv
580,Villarrica,-39.48612,-72.3038,nube,ʐö.ˈmɘ,,8-tromü.csv
581,Curarrehue,-39.46788,-71.55193,nube,ʈ͡ʂɐ̝w.ˈmɘ,,8-tromü.csv
582,Mariquina,-39.45147,-73.26457,nube,ˈt͡ɹ̝̥ö.mö,,8-tromü.csv
583,Lanco,-39.5046,-72.44441,nube,ˈʈ͡ʂö.mɘ,,8-tromü.csv
584,Panguipulli,-39.54399,-72.12614,nube,ˈt͡ɹ̝̥ö.mɘ,,8-tromü.csv
585,Valdivia,-39.81291,-72.95438,nube,ʈ͡ʂö.mʊ,,8-tromü.csv
586,San Pablo,-40.38308,-73.34988,nube,t͡ɹ̝̥öː.ˈmɘɲ,,8-tromü.csv
587,S. Juan de la Costa,-40.51004,-73.52129,nube,ʈ͡ʂö.mɘ,,8-tromü.csv
588,Chalileo,-36.42252,-66.47321,nube,t̺͡s̺ö.ˈmɘ,,8-tromü.csv
589,Picunches,-38.78279,-70.22884,nube,ʈ͡ʂö.ˈmɘ,,8-tromü.csv
590,Zapala,-38.85047,-69.74997,nube,ʈ͡ʂö.ˈmɘ,,8-tromü.csv
591,Aluminé,-39.19681,-71.05406,nube,ʈ͡ʂö.ˈmɘ,,8-tromü.csv
592,Junín de los Andes,-39.82386,-71.28742,nube,ʈ͡ʂö.ˈmɘ,,8-tromü.csv
593,Huiliches,-39.63992,-71.18686,nube,ʈ͡ʂö.ˈmɘ,,8-tromü.csv
594,Jacobacci,-41.28813,-69.55719,nube,ʈ͡ʂö.ˈmɘʎ,,8-tromü.csv
595,Cushamen,-42.23392,-71.34994,nube,ʈ͡ʂö.ˈmɘɻ,,8-tromü.csv
596,Lago Rosario,-43.24408,-71.32581,nube,ʈ͡ʂö.ˈmɘ,,8-tromü.csv
597,Ref. Spelling,-40.0,-75.5,pie,nɐ̝mɘn̪,namün’,4-namün.csv
598,Santa Bárbara,-37.67405,-71.80186,pie,nɐ̝.ˈmɘn,,4-namün.csv
599,Cañete,-37.96722,-73.39282,pie,ˈnɐ̝.mɘn,,4-namün.csv
600,Tirúa,-38.3699,-73.49067,pie,ˈnɐ̝.mɘs̪,,4-namün.csv
601,Alto Bío Bío,-38.04457,-71.36344,pie,nɐ̝.ˈmɘn,,4-namün.csv
602,Angol,-37.86289,-72.68304,pie,nɐ̝.ˈmɘn,,4-namün.csv
603,Lumaco,-38.17584,-72.89947,pie,nɐ̝.ˈmɘn,,4-namün.csv
604,Ercilla,-38.04926,-72.44544,pie,nɐ̝.ˈmɘn,,4-namün.csv
605,Galvarino,-38.40865,-72.78342,pie,nɐ̝.ˈmʊn,,4-namün.csv
606,Victoria,-38.35303,-72.19395,pie,nɐ̝.ˈmɘn,,4-namün.csv
607,Lonquimay,-38.42587,-71.37014,pie,nɐ̝.ˈmʊn,,4-namün.csv
608,Chol Chol,-38.51661,-72.97454,pie,nɐ̝.ˈmʊn,,4-namün.csv
609,Dollinco,-38.67157,-72.82837,pie,nɐ̝.ˈmɘn,,4-namün.csv
610,Vilcún,-38.59695,-72.31239,pie,nɐ̝.ˈmɘn,,4-namün.csv
611,Puerto Saavedra,-38.78431,-73.39912,pie,nɐ̝.ˈmʊn,,4-namün.csv
612,Truf Truf,-38.75576,-72.43983,pie,nɐ̝.ˈmɘn,,4-namün.csv
613,Icalma,-38.72338,-71.1847,pie,nɐ̝.ˈmɘn,,4-namün.csv
614,Freire,-38.99144,-72.8833,pie,nɐ̝.ˈmɘn,,4-namün.csv
615,Cunco,-38.97601,-72.01425,pie,nɐ̝.ˈmɘn,,4-namün.csv
616,Nueva Toltén,-39.20931,-73.1312,pie,nɐ̝.ˈmʊn,,4-namün.csv
617,Villarrica,-39.48612,-72.3038,pie,nɐ̝.ˈmɘn,,4-namün.csv
618,Curarrehue,-39.46788,-71.55193,pie,nɐ̝.ˈmʊn,,4-namün.csv
619,Mariquina,-39.45147,-73.26457,pie,nɐ̝.ˈmɘn,,4-namün.csv
620,Lanco,-39.5046,-72.44441,pie,nɐ̝.ˈmɘn,,4-namün.csv
621,Panguipulli,-39.54399,-72.12614,pie,nɐ̝.ˈmɘn,,4-namün.csv
622,Valdivia,-39.81291,-72.95438,pie,nɐ̝.ˈmɘn,,4-namün.csv
623,San Pablo,-40.38308,-73.34988,pie,ˈnɐ̝.mɘn,,4-namün.csv
624,S. Juan de la Costa,-40.51004,-73.52129,pie,ˈnɐ̝.mʊn̪,,4-namün.csv
625,Chalileo,-36.42252,-66.47321,pie,nɐ̝.ˈmɘn,,4-namün.csv
626,Picunches,-38.78279,-70.22884,pie,nɐ̝.ˈmɘn,,4-namün.csv
627,Zapala,-38.85047,-69.74997,pie,nɐ̝.ˈmʊn,,4-namün.csv
628,Aluminé,-39.19681,-71.05406,pie,nɐ̝.ˈmɘn,,4-namün.csv
629,Junín de los Andes,-39.82386,-71.28742,pie,nɐ̝.ˈmɘn,,4-namün.csv
630,Huiliches,-39.63992,-71.18686,pie,nɐ̝.ˈmɘn,,4-namün.csv
631,Cushamen,-42.23392,-71.34994,pie,nɐ̝.ˈmʊn,,4-namün.csv
632,Futaleufú,-42.95052,-71.18351,pie,nɐ̝.ˈmʊn,,4-namün.csv
633,Lago Rosario,-43.24408,-71.32581,pie,nɐ̝.ˈmɘn,,4-namün.csv
634,Ref. Spelling,-40.0,-75.5,zorro,ŋɘʐɘ,ngürü,6-ngürü.csv
635,Santa Bárbara,-37.67405,-71.80186,zorro,ˈŋɘ.ɻɘ,,6-ngürü.csv
636,Cañete,-37.96722,-73.39282,zorro,ŋɘ.ˈʐɘ,,6-ngürü.csv
637,Tirúa,-38.3699,-73.49067,zorro,ˈɳɘ.ɻɘ,,6-ngürü.csv
638,Alto Bío Bío,-38.04457,-71.36344,zorro,ˈŋɘ.ɻɘ,,6-ngürü.csv
639,Angol,-37.86289,-72.68304,zorro,ŋɘ.ˈɻɘ,,6-ngürü.csv
640,Lumaco,-38.17584,-72.89947,zorro,ˈŋɘ.ɻɘ,,6-ngürü.csv
641,Ercilla,-38.04926,-72.44544,zorro,ŋɘɻʂ,,6-ngürü.csv
642,Galvarino,-38.40865,-72.78342,zorro,ˈŋɘ.ɻɘ,,6-ngürü.csv
643,Victoria,-38.35303,-72.19395,zorro,ŋɘ.ˈɻɘ,,6-ngürü.csv
644,Lonquimay,-38.42587,-71.37014,zorro,ˈŋɘ.ʂɘ,,6-ngürü.csv
645,Chol Chol,-38.51661,-72.97454,zorro,ŋɘ.ˈɻɘ,,6-ngürü.csv
646,Dollinco,-38.67157,-72.82837,zorro,ŋɘ.ˈɻɘ,,6-ngürü.csv
647,Vilcún,-38.59695,-72.31239,zorro,ˈŋɘ.ɻɘ,,6-ngürü.csv
648,Puerto Saavedra,-38.78431,-73.39912,zorro,ˈŋɘ.ʐɘ,,6-ngürü.csv
649,Truf Truf,-38.75576,-72.43983,zorro,ŋɘ.ˈʐɘ,,6-ngürü.csv
650,Icalma,-38.72338,-71.1847,zorro,ŋɘ.ˈɻɘ,,6-ngürü.csv
651,Freire,-38.99144,-72.8833,zorro,ˈŋɘ.ɻɘ,,6-ngürü.csv
652,Cunco,-38.97601,-72.01425,zorro,ŋɘ.ˈʐʊ,,6-ngürü.csv
653,Nueva Toltén,-39.20931,-73.1312,zorro,ˈŋɘ.ɻɘ,,6-ngürü.csv
654,Villarrica,-39.48612,-72.3038,zorro,ŋɘ.ˈɻɘ,,6-ngürü.csv
655,Curarrehue,-39.46788,-71.55193,zorro,ŋɘ.ˈɻɘ,,6-ngürü.csv
656,Mariquina,-39.45147,-73.26457,zorro,ˈŋɘ.ɻɘ,,6-ngürü.csv
657,Lanco,-39.5046,-72.44441,zorro,ŋɘ.ˈɻɘ,,6-ngürü.csv
658,Panguipulli,-39.54399,-72.12614,zorro,ŋɘ.ʐɘ,,6-ngürü.csv
659,Valdivia,-39.81291,-72.95438,zorro,ˈŋɘ.ɻɘ,,6-ngürü.csv
660,San Pablo,-40.38308,-73.34988,zorro,ˈŋɘ.rɘ,,6-ngürü.csv
661,S. Juan de la Costa,-40.51004,-73.52129,zorro,ˈŋɘ.ʂɘ,,6-ngürü.csv
662,Chalileo,-36.42252,-66.47321,zorro,ŋɘ.ˈɻɘ,,6-ngürü.csv
663,Picunches,-38.78279,-70.22884,zorro,ŋɘ.ˈɻɘ,,6-ngürü.csv
664,Zapala,-38.85047,-69.74997,zorro,ŋɘ.ˈʐɘ,,6-ngürü.csv
665,Aluminé,-39.19681,-71.05406,zorro,ŋɘ.ˈʐɘ,,6-ngürü.csv
666,Junín de los Andes,-39.82386,-71.28742,zorro,ŋɘ.ˈɻɘ,,6-ngürü.csv
667,Huiliches,-39.63992,-71.18686,zorro,ŋɘ.ˈɻɘ,,6-ngürü.csv
668,Jacobacci,-41.28813,-69.55719,zorro,ŋɘ.ˈɻɘ,,6-ngürü.csv
669,Cushamen,-42.23392,-71.34994,zorro,ŋɘ.ˈʐɘ,,6-ngürü.csv
670,Futaleufú,-42.95052,-71.18351,zorro,ŋɘ.ˈʐʊ,,6-ngürü.csv
671,Lago Rosario,-43.24408,-71.32581,zorro,ŋɘ.ˈɻɘ,,6-ngürü.csv
672,Ref. Spelling,-40.0,-75.5,fuego,kɘʈʂɐ̝l,kütral,7-kütral.csv
673,Santa Bárbara,-37.67405,-71.80186,fuego,kɘ̆.ˈɖɐ̝l,,7-kütral.csv
674,Cañete,-37.96722,-73.39282,fuego,kɘ̆.ˈʈ͡ʂɐ̝l,,7-kütral.csv
675,Tirúa,-38.3699,-73.49067,fuego,kɘ̆.ˈt͡ɹ̝̥ɐ̝l,,7-kütral.csv
676,Alto Bío Bío,-38.04457,-71.36344,fuego,kʰt̩̚.ˈt̺͡s̺ɐ̝l,,7-kütral.csv
677,Angol,-37.86289,-72.68304,fuego,kɘ.ˈt̺͡s̺ɐ̝l,,7-kütral.csv
678,Lumaco,-38.17584,-72.89947,fuego,kɘ.ˈʈ͡ʂɐ̝l,,7-kütral.csv
679,Ercilla,-38.04926,-72.44544,fuego,kɘ̥̯.ˈt͡ɹ̝̥ɐ̝ɬ,,7-kütral.csv
680,Galvarino,-38.40865,-72.78342,fuego,kʰɘ.ˈʈ͡ʂɐ̝l,,7-kütral.csv
681,Victoria,-38.35303,-72.19395,fuego,kɘ̆.ˈʈɐ̝l,,7-kütral.csv
682,Lonquimay,-38.42587,-71.37014,fuego,kɘ̆ʈ̚.ˈʈ͡ʂɐ̝l,,7-kütral.csv
683,Chol Chol,-38.51661,-72.97454,fuego,kʰɘ̆.ˈʈ͡ʂɐ̝l,,7-kütral.csv
684,Dollinco,-38.67157,-72.82837,fuego,kɘ.ˈt̺͡s̺ɐ̝l,,7-kütral.csv
685,Vilcún,-38.59695,-72.31239,fuego,kɘ̆.ˈt̺͡s̺ɐ̝l,,7-kütral.csv
686,Puerto Saavedra,-38.78431,-73.39912,fuego,kɘ.ˈt̺͡s̺ɐ̝l,,7-kütral.csv
687,Truf Truf,-38.75576,-72.43983,fuego,kɘ.ˈʈ͡ʂɐ̝l,,7-kütral.csv
688,Icalma,-38.72338,-71.1847,fuego,xɘ.ˈʈ͡ʂɐ̝l,,7-kütral.csv
689,Freire,-38.99144,-72.8833,fuego,kɘ.ˈʈ͡ʂɐ̝l,,7-kütral.csv
690,Cunco,-38.97601,-72.01425,fuego,kɘ̆.ˈt̺͡s̺ɐ̝l,,7-kütral.csv
691,Nueva Toltén,-39.20931,-73.1312,fuego,ˈkɘ.t̺͡s̺ɐ̝l,,7-kütral.csv
692,Villarrica,-39.48612,-72.3038,fuego,kɘ.ˈʈ͡ʂɐ̝l,,7-kütral.csv
693,Curarrehue,-39.46788,-71.55193,fuego,kʰʈ̩̚.ˈʈ͡ʂɐ̝l,,7-kütral.csv
694,Mariquina,-39.45147,-73.26457,fuego,kɘ̆.ˈt͡ɹ̝̥ɐ̝l,,7-kütral.csv
695,Lanco,-39.5046,-72.44441,fuego,kʰɘ.ˈʈ͡ʂɐ̝l,,7-kütral.csv
696,Panguipulli,-39.54399,-72.12614,fuego,kʰt̩̚.ˈt͡ɹ̝̥ɐ̝l,,7-kütral.csv
697,Valdivia,-39.81291,-72.95438,fuego,kɘ.ˈʈ͡ʂɐ̝l,,7-kütral.csv
698,San Pablo,-40.38308,-73.34988,fuego,kɘ.ˈt̺͡s̺ɐ̝l,,7-kütral.csv
699,S. Juan de la Costa,-40.51004,-73.52129,fuego,kɘ̆.ˈʈ͡ʂɐ̝ɭ̝̥,,7-kütral.csv
700,Chalileo,-36.42252,-66.47321,fuego,kɘ.ˈtɐ̝l,,7-kütral.csv
701,Picunches,-38.78279,-70.22884,fuego,kʰɘ.ˈʂɐ̝l,,7-kütral.csv
702,Zapala,-38.85047,-69.74997,fuego,kʰɘ.ˈʈ͡ʂɐ̝l,,7-kütral.csv
703,Aluminé,-39.19681,-71.05406,fuego,kʰɘ.ˈʈ͡ʂɐ̝l,,7-kütral.csv
704,Junín de los Andes,-39.82386,-71.28742,fuego,kʈ̩̚.ˈʈ͡ʂɐ̝l,,7-kütral.csv
705,Huiliches,-39.63992,-71.18686,fuego,kʈ̩̚.ˈʈ͡ʂɐ̝l,,7-kütral.csv
706,Jacobacci,-41.28813,-69.55719,fuego,kʰɘ.ˈʈ͡ʂɐ̝l,,7-kütral.csv
707,Cushamen,-42.23392,-71.34994,fuego,kʰɘ̆.ˈʈ͡ʂɐ̝l,,7-kütral.csv
708,Futaleufú,-42.95052,-71.18351,fuego,wç̩.ˈʈ͡ʂɐ̝l,,7-kütral.csv
709,Lago Rosario,-43.24408,-71.32581,fuego,kʰɘ.ˈt̺͡s̺ɐ̝l,,7-kütral.csv
710,Ref. Spelling,-40.0,-75.5,matar,l̪ɐ̝ŋɘmɘn,l’angümün,11-l'angümün.csv
711,Cañete,-37.96722,-73.39282,matar,lɐ̝ŋ.ˈɡɘm,,11-l'angümün.csv
712,Tirúa,-38.3699,-73.49067,matar,ˈlɐ̝.ŋɘm,,11-l'angümün.csv
713,Alto Bío Bío,-38.04457,-71.36344,matar,ˌlɐ̝.ŋɘ.ˈmɘn,,11-l'angümün.csv
714,Angol,-37.86289,-72.68304,matar,ˈlɐ̝.ŋɘ.ˌmɘn,,11-l'angümün.csv
715,Lumaco,-38.17584,-72.89947,matar,ˈlɐ̝.ŋɘm.jë,,11-l'angümün.csv
716,Ercilla,-38.04926,-72.44544,matar,ˌlɐ̝.ŋɐ̝m.ˈŋɪ,,11-l'angümün.csv
717,Galvarino,-38.40865,-72.78342,matar,lɐ̝.ˌŋɘ.ˈmɘn,,11-l'angümün.csv
718,Victoria,-38.35303,-72.19395,matar,ˌlɐ̝.ŋɘm.ˈɲë,,11-l'angümün.csv
719,Lonquimay,-38.42587,-71.37014,matar,ˌlɐ̝.ŋɘ.ˈmɘn,,11-l'angümün.csv
720,Chol Chol,-38.51661,-72.97454,matar,ˌlɐ̝.ɲɘ.ˈmɘn,,11-l'angümün.csv
721,Dollinco,-38.67157,-72.82837,matar,ˈlɐ̝.ŋɘ.ˌmɘn,,11-l'angümün.csv
722,Vilcún,-38.59695,-72.31239,matar,ˌlɐ̝.ˈŋɘ.mɘn,,11-l'angümün.csv
723,Puerto Saavedra,-38.78431,-73.39912,matar,l̪ɐ̝.ˌŋɘ.ˈmɘn,,11-l'angümün.csv
724,Truf Truf,-38.75576,-72.43983,matar,lɐ̝.ˈŋɘ.mɘn,,11-l'angümün.csv
725,Icalma,-38.72338,-71.1847,matar,ˌlɐ̝.ŋɘ.ˈmɘj,,11-l'angümün.csv
726,Freire,-38.99144,-72.8833,matar,lɐ̝.ˌŋɘ.ˈmɘn,,11-l'angümün.csv
727,Cunco,-38.97601,-72.01425,matar,ˈlɐ̝.ŋɘm,,11-l'angümün.csv
728,Nueva Toltén,-39.20931,-73.1312,matar,lɐ̝.ˌŋɘ.ˈmɘn,,11-l'angümün.csv
729,Villarrica,-39.48612,-72.3038,matar,ˌlɐ̝.ŋɘ.ˈmɘn,,11-l'angümün.csv
730,Curarrehue,-39.46788,-71.55193,matar,lɐ̝.ˈŋɘm,,11-l'angümün.csv
731,Mariquina,-39.45147,-73.26457,matar,lɐ̝.ˈŋɘm,,11-l'angümün.csv
732,Lanco,-39.5046,-72.44441,matar,lɐ̝.ˈŋɘm,,11-l'angümün.csv
733,Panguipulli,-39.54399,-72.12614,matar,ˌlɐ̝.ŋɘ.ˈmɐ̝n,,11-l'angümün.csv
734,Valdivia,-39.81291,-72.95438,matar,lɐ̝.ˈŋɘm,,11-l'angümün.csv
735,San Pablo,-40.38308,-73.34988,matar,l̩.d̪ɐ̝.ˈŋɘm,,11-l'angümün.csv
736,S. Juan de la Costa,-40.51004,-73.52129,matar,ˌlɐ̝.ŋɘ.ˈmɪn,,11-l'angümün.csv
737,Chalileo,-36.42252,-66.47321,matar,lɐ̝.ˈŋɘm,,11-l'angümün.csv
738,Picunches,-38.78279,-70.22884,matar,ˌlɐ̝.ŋɘ.ˈmɪ,,11-l'angümün.csv
739,Zapala,-38.85047,-69.74997,matar,ɮɐ̝m.ˈŋën,,11-l'angümün.csv
740,Aluminé,-39.19681,-71.05406,matar,lɐ̝.ˌŋɘm.ˈŋëj,,11-l'angümün.csv
741,Junín de los Andes,-39.82386,-71.28742,matar,ˈlɐ̝.ŋɘ.ˌmɘn,,11-l'angümün.csv
742,Huiliches,-39.63992,-71.18686,matar,ˌlɐ̝.ŋɘ.ˈmɪ,,11-l'angümün.csv
743,Cushamen,-42.23392,-71.34994,matar,lɐ̝.ˌŋɘ.ˈmɘj,,11-l'angümün.csv
744,Futaleufú,-42.95052,-71.18351,matar,lɐ̝.ˌŋɘ.ˈmɘ,,11-l'angümün.csv
745,Lago Rosario,-43.24408,-71.32581,matar,ˌlɐ̝ŋ.ɡɘ̆.ˈmɘn,,11-l'angümün.csv
746,Ref. Spelling,-40.0,-75.5,sol,ɐ̝nt̪ɘ,ant’ü,7-ant'ü.csv
747,Santa Bárbara,-37.67405,-71.80186,sol,ˈɐ̝n̪.t̪ɘ,,7-ant'ü.csv
748,Cañete,-37.96722,-73.39282,sol,ˈɐ̝n̪.t̪ɘ,,7-ant'ü.csv
749,Tirúa,-38.3699,-73.49067,sol,ˈɐ̝n̪.t̪ʰɘ̥,,7-ant'ü.csv
750,Alto Bío Bío,-38.04457,-71.36344,sol,ɐ̝n̪.ˈt̪ɘ,,7-ant'ü.csv
751,Angol,-37.86289,-72.68304,sol,ɐ̝n̪.ˈt̪ɘ,,7-ant'ü.csv
752,Lumaco,-38.17584,-72.89947,sol,ˈɐ̝n̪.t̪ɘ,,7-ant'ü.csv
753,Ercilla,-38.04926,-72.44544,sol,ˈɐ̝n̪.ˈt̪ë,,7-ant'ü.csv
754,Galvarino,-38.40865,-72.78342,sol,ˈɐ̝n̪.t̪ɘ,,7-ant'ü.csv
755,Victoria,-38.35303,-72.19395,sol,ɐ̝n̪.ˈt̪ɘ,,7-ant'ü.csv
756,Lonquimay,-38.42587,-71.37014,sol,ɐ̝n̪.ˈt̪ɘx,,7-ant'ü.csv
757,Chol Chol,-38.51661,-72.97454,sol,ɐ̝n̪.ˈt̪ɘ,,7-ant'ü.csv
758,Dollinco,-38.67157,-72.82837,sol,ɐ̝n̪.ˈt̪ɘ,,7-ant'ü.csv
759,Vilcún,-38.59695,-72.31239,sol,ɐ̝n̪.ˈt̪ɘ,,7-ant'ü.csv
760,Puerto Saavedra,-38.78431,-73.39912,sol,ɐ̝n̪.ˈt̪ɘ,,7-ant'ü.csv
761,Truf Truf,-38.75576,-72.43983,sol,ɐ̝n̪.ˈt̪ɘ,,7-ant'ü.csv
762,Icalma,-38.72338,-71.1847,sol,ɐ̝n̪.ˈt̪ɘ,,7-ant'ü.csv
763,Freire,-38.99144,-72.8833,sol,ɐ̝n̪.ˈt̪ɘ,,7-ant'ü.csv
764,Cunco,-38.97601,-72.01425,sol,ɐ̝n̪.ˈt̪ʊ,,7-ant'ü.csv
765,Nueva Toltén,-39.20931,-73.1312,sol,ɐ̝n̪.ˈd̪ɘ,,7-ant'ü.csv
766,Villarrica,-39.48612,-72.3038,sol,ɐ̝n̪.ˈt̪ɘ,,7-ant'ü.csv
767,Curarrehue,-39.46788,-71.55193,sol,ɐ̝n̪.ˈt̪ɘ,,7-ant'ü.csv
768,Mariquina,-39.45147,-73.26457,sol,ˈɐ̝n̪.t̪ɘ,,7-ant'ü.csv
769,Lanco,-39.5046,-72.44441,sol,ɐ̝n̪.ˈt̪ɘ,,7-ant'ü.csv
770,Panguipulli,-39.54399,-72.12614,sol,ˈɐ̝n̪.t̪ë̥,,7-ant'ü.csv
771,Valdivia,-39.81291,-72.95438,sol,ˈɐ̝n̪.t̪͡θɘ,,7-ant'ü.csv
772,San Pablo,-40.38308,-73.34988,sol,ˈɐ̝n̪.t̪ʊ,,7-ant'ü.csv
773,S. Juan de la Costa,-40.51004,-73.52129,sol,ˈɐ̝n̪.t̪ɘ,,7-ant'ü.csv
774,Chalileo,-36.42252,-66.47321,sol,ɐ̝n̪.t̪ɘ,,7-ant'ü.csv
775,Picunches,-38.78279,-70.22884,sol,ɐ̝n̪.ˈt̪ɘ,,7-ant'ü.csv
776,Zapala,-38.85047,-69.74997,sol,ɐ̝n̪.ˈt̪ɘ,,7-ant'ü.csv
777,Aluminé,-39.19681,-71.05406,sol,ɐ̝n̪.ˈt̪ʊ,,7-ant'ü.csv
778,Junín de los Andes,-39.82386,-71.28742,sol,jɐ̝n̪.ˈt̪ʊ,,7-ant'ü.csv
779,Huiliches,-39.63992,-71.18686,sol,ɐ̝n̪.ˈt̪ɘ,,7-ant'ü.csv
780,Jacobacci,-41.28813,-69.55719,sol,ɐ̝n̪.ˈt̪ɘ,,7-ant'ü.csv
781,Cushamen,-42.23392,-71.34994,sol,ɐ̝n̪.ˈt̪ɘ,,7-ant'ü.csv
782,Futaleufú,-42.95052,-71.18351,sol,ɐ̝n̪.ˈt̪ʊ,,7-ant'ü.csv
783,Lago Rosario,-43.24408,-71.32581,sol,ɐ̝n̪.ˈt̪ɘ,,7-ant'ü.csv
784,Ref. Spelling,-40.0,-75.5,lenya,mɐ̝mɘʎ,mamüll,7-mamüll.csv
785,Alto Bío Bío,-38.04457,-71.36344,lenya,mɐ̝.ˈmɘʎ,,7-mamüll.csv
786,Lumaco,-38.17584,-72.89947,lenya,mɐ̝.ˈmɘʎʎ̥,,7-mamüll.csv
787,Ercilla,-38.04926,-72.44544,lenya,mɐ̝.ˈmɘʎʎ̥,,7-mamüll.csv
788,Galvarino,-38.40865,-72.78342,lenya,mɐ̝.ˈmɘʎ,,7-mamüll.csv
789,Victoria,-38.35303,-72.19395,lenya,mɐ̝.ˈmɘʎ,,7-mamüll.csv
790,Lonquimay,-38.42587,-71.37014,lenya,mɐ̝.ˈmɘʎʎ̥,,7-mamüll.csv
791,Chol Chol,-38.51661,-72.97454,lenya,mɐ̝.ˈmɘʎ,,7-mamüll.csv
792,Dollinco,-38.67157,-72.82837,lenya,mɐ̝.ˈmɘʎ,,7-mamüll.csv
793,Puerto Saavedra,-38.78431,-73.39912,lenya,mɐ̝.ˈmɘʎ̥,,7-mamüll.csv
794,Truf Truf,-38.75576,-72.43983,lenya,mɐ̝.ˈmɘʎ,,7-mamüll.csv
795,Freire,-38.99144,-72.8833,lenya,mɐ̝.ˈmɘʎ,,7-mamüll.csv
796,Cunco,-38.97601,-72.01425,lenya,ˈmɐ̝.mɘʎʎ̥,,7-mamüll.csv
797,Nueva Toltén,-39.20931,-73.1312,lenya,mɐ̝.ˈmɘʎ,,7-mamüll.csv
798,Villarrica,-39.48612,-72.3038,lenya,mɐ̝.ˈmɘʎ,,7-mamüll.csv
799,Curarrehue,-39.46788,-71.55193,lenya,mɐ̝.ˈmɘʎ,,7-mamüll.csv
800,Mariquina,-39.45147,-73.26457,lenya,mɐ̝.ˈmɘʎ,,7-mamüll.csv
801,Lanco,-39.5046,-72.44441,lenya,mɐ̝.ˈmɘʎ,,7-mamüll.csv
802,Panguipulli,-39.54399,-72.12614,lenya,mɐ̝.ˈmɘʎ,,7-mamüll.csv
803,San Pablo,-40.38308,-73.34988,lenya,ˈmɐ̝.mɘʎ,,7-mamüll.csv
804,S. Juan de la Costa,-40.51004,-73.52129,lenya,ˈmɐ̝.mɘʎ̝̥,,7-mamüll.csv
805,Chalileo,-36.42252,-66.47321,lenya,mɐ̝.ˈmɘʎ̝,,7-mamüll.csv
806,Zapala,-38.85047,-69.74997,lenya,mɐ̝.ˈmɘʎ,,7-mamüll.csv
807,Aluminé,-39.19681,-71.05406,lenya,mɐ̝.ˈmɘʎ,,7-mamüll.csv
808,Junín de los Andes,-39.82386,-71.28742,lenya,mɐ̝.ˈmʷɘʎ,,7-mamüll.csv
809,Huiliches,-39.63992,-71.18686,lenya,mɐ̝.ˈmɘʎ,,7-mamüll.csv
810,Jacobacci,-41.28813,-69.55719,lenya,mɐ̝.ˈmɘʎ̝̥,,7-mamüll.csv
811,Cushamen,-42.23392,-71.34994,lenya,mɐ̝.ˈmɘʎʎ̥,,7-mamüll.csv
812,Futaleufú,-42.95052,-71.18351,lenya,mɐ̝.ˈmɘʎ̝̥,,7-mamüll.csv
813,Lago Rosario,-43.24408,-71.32581,lenya,mɐ̝.ˈmɘn,,7-mamüll.csv
814,Ref. Spelling,-40.0,-75.5,grande,fɘtɐ̝,füta,3-füta.csv
815,Santa Bárbara,-37.67405,-71.80186,grande,ʋɘ.ˈt̪ɐ̝,,3-füta.csv
816,Cañete,-37.96722,-73.39282,grande,m̩.ˌbɘ.ˈt͡ʃɐ̝,,3-füta.csv
817,Alto Bío Bío,-38.04457,-71.36344,grande,wɘ.ˈt̪ɐ̝,,3-füta.csv
818,Lumaco,-38.17584,-72.89947,grande,ɸɘː.ˈtʰɐ̝,,3-füta.csv
819,Galvarino,-38.40865,-72.78342,grande,fɘ.ˈt͡ɹ̝̥ɐ̝,,3-füta.csv
820,Victoria,-38.35303,-72.19395,grande,t̪ɐ̝,,3-füta.csv
821,Chol Chol,-38.51661,-72.97454,grande,f̩t̪̚.ˈt̪ɐ̝,,3-füta.csv
822,Dollinco,-38.67157,-72.82837,grande,f̞ɘ̆.ˈt̪ɐ̝,,3-füta.csv
823,Puerto Saavedra,-38.78431,-73.39912,grande,ˈfɘ.tɐ̝,,3-füta.csv
824,Truf Truf,-38.75576,-72.43983,grande,ɸɘ.ˈt̪ɐ̝,,3-füta.csv
825,Icalma,-38.72338,-71.1847,grande,ˈfɘ.t̪ɘ,,3-füta.csv
826,Freire,-38.99144,-72.8833,grande,fɘ.ˈt̺͡s̺ɐ̝,,3-füta.csv
827,Cunco,-38.97601,-72.01425,grande,f̩.ˈt̪ɐ̝,,3-füta.csv
828,Villarrica,-39.48612,-72.3038,grande,fɘ̆.ˈʈ͡ʂɐ̝,,3-füta.csv
829,Curarrehue,-39.46788,-71.55193,grande,f̩t̪̚.ˈt̪ɐ̝n.mɐ̝,,3-füta.csv
830,Mariquina,-39.45147,-73.26457,grande,ˈfɘ.t̪ɐ̝,,3-füta.csv
831,Panguipulli,-39.54399,-72.12614,grande,ft̩̚.ˈtɐ̝ɲ.mɐ̝,,3-füta.csv
832,Valdivia,-39.81291,-72.95438,grande,fɘ̆.ˈʃɐ̝,,3-füta.csv
833,San Pablo,-40.38308,-73.34988,grande,ˈhɘ.t͡ʃɐ̝ɐ̝̥̯,,3-füta.csv
834,S. Juan de la Costa,-40.51004,-73.52129,grande,ˈxʊ.t̪ɐ̝,,3-füta.csv
835,Aluminé,-39.19681,-71.05406,grande,fʊ.ˈt̪ɐ̝j.mɐ̝,,3-füta.csv
836,Junín de los Andes,-39.82386,-71.28742,grande,f̩t̪̚.ˈt̪ɐ̝,,3-füta.csv
837,Huiliches,-39.63992,-71.18686,grande,ft̪̩̚.ˈt̪ɐ̝,,3-füta.csv
838,Jacobacci,-41.28813,-69.55719,grande,f̩t̪̚.ˈʈ͡ʂɐ̝,,3-füta.csv
839,Cushamen,-42.23392,-71.34994,grande,fɘ.ˈt̪ɐ̝,,3-füta.csv
840,Futaleufú,-42.95052,-71.18351,grande,fɘ.ˈt̪ɐ̝,,3-füta.csv
841,Lago Rosario,-43.24408,-71.32581,grande,f̩t̪̚.ˈt̪ɐ̝,,3-füta.csv
842,Ref. Spelling,-40.0,-75.5,coser,ɲɪθɘfɘn,ñidüfün,11-ñidüfün.csv
843,Santa Bárbara,-37.67405,-71.80186,coser,ˌɲɪ.ðɘ.ˈvɐ̝l,,11-ñidüfün.csv
844,Cañete,-37.96722,-73.39282,coser,nɘ.ˈðɘv,,11-ñidüfün.csv
845,Alto Bío Bío,-38.04457,-71.36344,coser,ˌɲɪ.ðɘ.ˈwɘn,,11-ñidüfün.csv
846,Angol,-37.86289,-72.68304,coser,ˌɲɪ.ðɪv.kɐ̝.ˈjɐ̝n,,11-ñidüfün.csv
847,Ercilla,-38.04926,-72.44544,coser,ˌɲɪ.θɘf.ˈkë,,11-ñidüfün.csv
848,Galvarino,-38.40865,-72.78342,coser,ɲɪ.ˌθɘ.ˈfɘn,,11-ñidüfün.csv
849,Victoria,-38.35303,-72.19395,coser,ˌɲɪ.ðɪv.ˈkɐ̝.pɪ,,11-ñidüfün.csv
850,Lonquimay,-38.42587,-71.37014,coser,ɲɘ.d̪ɘf.ˈt̪ʊn,,11-ñidüfün.csv
851,Chol Chol,-38.51661,-72.97454,coser,ˌɲɪ.ˈθɘ.fɘn,,11-ñidüfün.csv
852,Dollinco,-38.67157,-72.82837,coser,ɲɪ.ˈθɘ.fɘn,,11-ñidüfün.csv
853,Vilcún,-38.59695,-72.31239,coser,ˌɲë.ˈðɘf.t̪ɘn,,11-ñidüfün.csv
854,Puerto Saavedra,-38.78431,-73.39912,coser,ɲɪ.ˈθɘ.fɘn,,11-ñidüfün.csv
855,Truf Truf,-38.75576,-72.43983,coser,ɲɪ.ˈsɘ.ˌfɘn,,11-ñidüfün.csv
856,Icalma,-38.72338,-71.1847,coser,ˈɲɘ.θɘf.ˌkɐ̝n,,11-ñidüfün.csv
857,Freire,-38.99144,-72.8833,coser,ɲɘ.ˌθɘf.ˈt̪ʊn,,11-ñidüfün.csv
858,Cunco,-38.97601,-72.01425,coser,ɲɪ.ˌsɘf.ˈt̪ʊn,,11-ñidüfün.csv
859,Nueva Toltén,-39.20931,-73.1312,coser,ˌɲɪ.θɘ.ˈfɘn,,11-ñidüfün.csv
860,Curarrehue,-39.46788,-71.55193,coser,ˌɲɪ.ˈʃɪf.t̪ön,,11-ñidüfün.csv
861,Mariquina,-39.45147,-73.26457,coser,ɲɪ.ˌfɘf.ˈt̪ʊn,,11-ñidüfün.csv
862,Lanco,-39.5046,-72.44441,coser,mʊ.ʃɘf.ˈfɘn,,11-ñidüfün.csv
863,Panguipulli,-39.54399,-72.12614,coser,ŋɘ.ˌʃɪ.ˈfɐ̝n,,11-ñidüfün.csv
864,Valdivia,-39.81291,-72.95438,coser,ɲɪ.ˈθɘf,,11-ñidüfün.csv
865,San Pablo,-40.38308,-73.34988,coser,ˈɲɘ.sɘf.t̪ɘn,,11-ñidüfün.csv
866,S. Juan de la Costa,-40.51004,-73.52129,coser,ˌɲɪ.fɘ̆.ˈt̪ɘn,,11-ñidüfün.csv
867,Picunches,-38.78279,-70.22884,coser,ˌɲɘ.ðɪf.ˈt̪ɘ̯j,,11-ñidüfün.csv
868,Aluminé,-39.19681,-71.05406,coser,ˌɲɪs.θʊ.ˈfɐ̝n,,11-ñidüfün.csv
869,Junín de los Andes,-39.82386,-71.28742,coser,ˈɲɪ.θɘ.fɘn,,11-ñidüfün.csv
870,Huiliches,-39.63992,-71.18686,coser,ɲɪ.θɘ.ˈɸ̞ɘn,,11-ñidüfün.csv
871,Ref. Spelling,-40.0,-75.5,saber,kɪmɘn,kimün,11-kimün.csv
872,Santa Bárbara,-37.67405,-71.80186,saber,cʰɪ.ˈmɘn,,11-kimün.csv
873,Cañete,-37.96722,-73.39282,saber,cʰɪ.ˈmɪ,,11-kimün.csv
874,Tirúa,-38.3699,-73.49067,saber,ˈcʰɪ.mɪ,,11-kimün.csv
875,Alto Bío Bío,-38.04457,-71.36344,saber,tʰɪ.ˈmɘn,,11-kimün.csv
876,Angol,-37.86289,-72.68304,saber,cʰɪ.ˈmɘn,,11-kimün.csv
877,Lumaco,-38.17584,-72.89947,saber,ˈcʰɪm.t̪ʊ.ˌkʊn,,11-kimün.csv
878,Ercilla,-38.04926,-72.44544,saber,çɪ.ˈmɪ,,11-kimün.csv
879,Galvarino,-38.40865,-72.78342,saber,cʰɪ.ˈmɘn,,11-kimün.csv
880,Victoria,-38.35303,-72.19395,saber,cɪ.ˈmɪ,,11-kimün.csv
881,Lonquimay,-38.42587,-71.37014,saber,cʰɪ.ˈmɘn,,11-kimün.csv
882,Chol Chol,-38.51661,-72.97454,saber,cʰɪ.ˈmɘn,,11-kimün.csv
883,Dollinco,-38.67157,-72.82837,saber,cʰɪ.ˈmɘn,,11-kimün.csv
884,Vilcún,-38.59695,-72.31239,saber,cʰɪ.ˈmɘn,,11-kimün.csv
885,Puerto Saavedra,-38.78431,-73.39912,saber,cʰɪ.ˈmɘn,,11-kimün.csv
886,Truf Truf,-38.75576,-72.43983,saber,cɪ.ˈmɘn,,11-kimün.csv
887,Icalma,-38.72338,-71.1847,saber,cʰɪ.ˈmɘn,,11-kimün.csv
888,Freire,-38.99144,-72.8833,saber,cɪ.ˈmɘn,,11-kimün.csv
889,Cunco,-38.97601,-72.01425,saber,cʰɪ.ˈmɘn,,11-kimün.csv
890,Nueva Toltén,-39.20931,-73.1312,saber,cɪ.ˈmɘn,,11-kimün.csv
891,Villarrica,-39.48612,-72.3038,saber,cʰɪ.ˈmɘn,,11-kimün.csv
892,Curarrehue,-39.46788,-71.55193,saber,cʰɪ.ˈmɘn,,11-kimün.csv
893,Mariquina,-39.45147,-73.26457,saber,cɘ.ˈmɘn,,11-kimün.csv
894,Lanco,-39.5046,-72.44441,saber,cʰɪ.ˈmɘn,,11-kimün.csv
895,Panguipulli,-39.54399,-72.12614,saber,cʰɪ.ˈmɘn,,11-kimün.csv
896,Valdivia,-39.81291,-72.95438,saber,cʰɪm.ˈjɘn,,11-kimün.csv
897,San Pablo,-40.38308,-73.34988,saber,cʰɪ.ˈmɘn,,11-kimün.csv
898,S. Juan de la Costa,-40.51004,-73.52129,saber,cʰɪ.ˈmɪn,,11-kimün.csv
899,Chalileo,-36.42252,-66.47321,saber,cʰɪ.ˈmɘn,,11-kimün.csv
900,Picunches,-38.78279,-70.22884,saber,çɪ.ˈmɘj,,11-kimün.csv
901,Zapala,-38.85047,-69.74997,saber,cʰɪ.ˈmɘn,,11-kimün.csv
902,Aluminé,-39.19681,-71.05406,saber,cʰɪ.ˈmɐ̝.fɪɲ,,11-kimün.csv
903,Junín de los Andes,-39.82386,-71.28742,saber,cʰɪ̆.ˈmɘn,,11-kimün.csv
904,Huiliches,-39.63992,-71.18686,saber,çɪ.ˈmɘn,,11-kimün.csv
905,Cushamen,-42.23392,-71.34994,saber,cʰɪ.ˈmɘj,,11-kimün.csv
906,Ref. Spelling,-40.0,-75.5,lengua,këwɘn̪,kewün’,4-kewün.csv
907,Santa Bárbara,-37.67405,-71.80186,lengua,cʰë.ˈwɘn,,4-kewün.csv
908,Cañete,-37.96722,-73.39282,lengua,ˈcʰë.wɘn,,4-kewün.csv
909,Tirúa,-38.3699,-73.49067,lengua,ˈkë.wɘn,,4-kewün.csv
910,Alto Bío Bío,-38.04457,-71.36344,lengua,kʰë.ˈwɘn,,4-kewün.csv
911,Angol,-37.86289,-72.68304,lengua,cʰë.ˈwɘn,,4-kewün.csv
912,Lumaco,-38.17584,-72.89947,lengua,çë.ˈwɘn,,4-kewün.csv
913,Ercilla,-38.04926,-72.44544,lengua,kʰë.ˈwɘn,,4-kewün.csv
914,Galvarino,-38.40865,-72.78342,lengua,cʰë.ˈwɘn,,4-kewün.csv
915,Victoria,-38.35303,-72.19395,lengua,cʰë.ˈwɘn,,4-kewün.csv
916,Lonquimay,-38.42587,-71.37014,lengua,cʰë.ˈwɘn,,4-kewün.csv
917,Chol Chol,-38.51661,-72.97454,lengua,cʰë.ˈwɘn,,4-kewün.csv
918,Dollinco,-38.67157,-72.82837,lengua,cʰë.ˈwɘn,,4-kewün.csv
919,Vilcún,-38.59695,-72.31239,lengua,cʰë.ˈwɘn,,4-kewün.csv
920,Puerto Saavedra,-38.78431,-73.39912,lengua,cʰë.ˈwɘn,,4-kewün.csv
921,Truf Truf,-38.75576,-72.43983,lengua,cʰë.ˈwɘn,,4-kewün.csv
922,Icalma,-38.72338,-71.1847,lengua,cʰë.ˈwɘn,,4-kewün.csv
923,Freire,-38.99144,-72.8833,lengua,cʰë.ˈwɘn,,4-kewün.csv
924,Cunco,-38.97601,-72.01425,lengua,ˌcʰë.ˈwɘn,,4-kewün.csv
925,Nueva Toltén,-39.20931,-73.1312,lengua,cë.ˈwɘn,,4-kewün.csv
926,Villarrica,-39.48612,-72.3038,lengua,kʰë.ˈwɘn,,4-kewün.csv
927,Curarrehue,-39.46788,-71.55193,lengua,kʰë.ˈwɘn,,4-kewün.csv
928,Mariquina,-39.45147,-73.26457,lengua,cʰë.ˈwɘn,,4-kewün.csv
929,Lanco,-39.5046,-72.44441,lengua,cʰë.ˈwɘn,,4-kewün.csv
930,Panguipulli,-39.54399,-72.12614,lengua,cʰë.ˈwɘn,,4-kewün.csv
931,Valdivia,-39.81291,-72.95438,lengua,cʰë.ˈwɘn,,4-kewün.csv
932,San Pablo,-40.38308,-73.34988,lengua,ˈcʰë.wɘn,,4-kewün.csv
933,S. Juan de la Costa,-40.51004,-73.52129,lengua,ˈcʰë.wɘn̪,,4-kewün.csv
934,Chalileo,-36.42252,-66.47321,lengua,kʰë.ˈwɘn,,4-kewün.csv
935,Picunches,-38.78279,-70.22884,lengua,c͡çë.ˈwɘn,,4-kewün.csv
936,Zapala,-38.85047,-69.74997,lengua,cʰë.ˈwɘn,,4-kewün.csv
937,Aluminé,-39.19681,-71.05406,lengua,cʰë.ˈwɘn,,4-kewün.csv
938,Junín de los Andes,-39.82386,-71.28742,lengua,cë.ˈwɘn,,4-kewün.csv
939,Huiliches,-39.63992,-71.18686,lengua,cʰë.ˈwɘn,,4-kewün.csv
940,Jacobacci,-41.28813,-69.55719,lengua,kʰë.ˈwɘn,,4-kewün.csv
941,Cushamen,-42.23392,-71.34994,lengua,kʰë.ˈwɘn,,4-kewün.csv
942,Futaleufú,-42.95052,-71.18351,lengua,fë.ˈwɘn,,4-kewün.csv
943,Lago Rosario,-43.24408,-71.32581,lengua,cʰë.ˈwɘn,,4-kewün.csv
944,Ref. Spelling,-40.0,-75.5,campo,lëlfɘn,lelfün,7-lelfün.csv
945,Santa Bárbara,-37.67405,-71.80186,campo,ˈlël.vɘn,,7-lelfün.csv
946,Cañete,-37.96722,-73.39282,campo,ˈlël.vɘn,,7-lelfün.csv
947,Tirúa,-38.3699,-73.49067,campo,lël.ˈʋɪn,,7-lelfün.csv
948,Alto Bío Bío,-38.04457,-71.36344,campo,lël.ˈvɘn,,7-lelfün.csv
949,Angol,-37.86289,-72.68304,campo,lël.ˈbɘ,,7-lelfün.csv
950,Lumaco,-38.17584,-72.89947,campo,ˈlël.vɘn,,7-lelfün.csv
951,Ercilla,-38.04926,-72.44544,campo,lël.ˈfɘn,,7-lelfün.csv
952,Galvarino,-38.40865,-72.78342,campo,lël.ˈfɘn,,7-lelfün.csv
953,Victoria,-38.35303,-72.19395,campo,lël.ˈfɘn,,7-lelfün.csv
954,Chol Chol,-38.51661,-72.97454,campo,lël.ˈfɘn,,7-lelfün.csv
955,Dollinco,-38.67157,-72.82837,campo,lël.ˈfɘn,,7-lelfün.csv
956,Vilcún,-38.59695,-72.31239,campo,lël.ˈfɘn,,7-lelfün.csv
957,Puerto Saavedra,-38.78431,-73.39912,campo,lël.ˈfɘn,,7-lelfün.csv
958,Truf Truf,-38.75576,-72.43983,campo,nël̥.ˈfɘn,,7-lelfün.csv
959,Icalma,-38.72338,-71.1847,campo,lël.ˈfɘn,,7-lelfün.csv
960,Freire,-38.99144,-72.8833,campo,lël.ˈfɘn,,7-lelfün.csv
961,Cunco,-38.97601,-72.01425,campo,lël.ˈfɘn,,7-lelfün.csv
962,Nueva Toltén,-39.20931,-73.1312,campo,lël.ˈfɘn,,7-lelfün.csv
963,Villarrica,-39.48612,-72.3038,campo,lël.ˈfɘn,,7-lelfün.csv
964,Curarrehue,-39.46788,-71.55193,campo,lël.ˈfɘn,,7-lelfün.csv
965,Mariquina,-39.45147,-73.26457,campo,ˌlël.ˈfɘn,,7-lelfün.csv
966,Lanco,-39.5046,-72.44441,campo,lël.ˈfɘn,,7-lelfün.csv
967,Panguipulli,-39.54399,-72.12614,campo,lël.ˈfwɘn,,7-lelfün.csv
968,Valdivia,-39.81291,-72.95438,campo,lël.ˈfɘn,,7-lelfün.csv
969,Chalileo,-36.42252,-66.47321,campo,lël.ˈvɘn,,7-lelfün.csv
970,Picunches,-38.78279,-70.22884,campo,ɮël̝.ˈfɘn,,7-lelfün.csv
971,Zapala,-38.85047,-69.74997,campo,lël.ˈp͡ɸʊm,,7-lelfün.csv
972,Junín de los Andes,-39.82386,-71.28742,campo,lël.ˈfɘn,,7-lelfün.csv
973,Huiliches,-39.63992,-71.18686,campo,lël.ˈfɘn,,7-lelfün.csv
974,Cushamen,-42.23392,-71.34994,campo,lëw.ˈfɘn,,7-lelfün.csv
975,Lago Rosario,-43.24408,-71.32581,campo,lël.ˈfɘn,,7-lelfün.csv
976,Ref. Spelling,-40.0,-75.5,tres,kɘlɐ̝,küla,1-küla.csv
977,Santa Bárbara,-37.67405,-71.80186,tres,kʰɘ.ˈlɐ̝,,1-küla.csv
978,Cañete,-37.96722,-73.39282,tres,ˈkʰɘ.lɐ̝,,1-küla.csv
979,Tirúa,-38.3699,-73.49067,tres,ˈkɘ.lɐ̝,,1-küla.csv
980,Alto Bío Bío,-38.04457,-71.36344,tres,kɘ.ˈlɐ̝,,1-küla.csv
981,Angol,-37.86289,-72.68304,tres,ˈkʰɘ.lɐ̝,,1-küla.csv
982,Lumaco,-38.17584,-72.89947,tres,ˈkɘ.lɐ̝,,1-küla.csv
983,Ercilla,-38.04926,-72.44544,tres,kʰɘ.ˈlɐ̝,,1-küla.csv
984,Galvarino,-38.40865,-72.78342,tres,ˈkʰɘ.lɐ̝,,1-küla.csv
985,Victoria,-38.35303,-72.19395,tres,ˈkʰɘ.lɐ̝,,1-küla.csv
986,Lonquimay,-38.42587,-71.37014,tres,ˈkɘ.lɐ̝ɐ̝̥̯,,1-küla.csv
987,Chol Chol,-38.51661,-72.97454,tres,ˈkʰɘ.lɐ̝,,1-küla.csv
988,Dollinco,-38.67157,-72.82837,tres,kɘ̆.ˈlɐ̝,,1-küla.csv
989,Vilcún,-38.59695,-72.31239,tres,ˈkʰɘ.lɐ̝,,1-küla.csv
990,Puerto Saavedra,-38.78431,-73.39912,tres,ˈkʰɘ.lɐ̝,,1-küla.csv
991,Truf Truf,-38.75576,-72.43983,tres,kʰl̩.ˈlɐ̝,,1-küla.csv
992,Icalma,-38.72338,-71.1847,tres,kl̩.ˈlɐ̝,,1-küla.csv
993,Freire,-38.99144,-72.8833,tres,ˈkʰɘ.lɐ̝,,1-küla.csv
994,Cunco,-38.97601,-72.01425,tres,kʰɘ.ˈlɐ̝,,1-küla.csv
995,Nueva Toltén,-39.20931,-73.1312,tres,kʰɘl.ˈlɐ̝,,1-küla.csv
996,Villarrica,-39.48612,-72.3038,tres,kɘ̆l.ˈlɐ̝,,1-küla.csv
997,Curarrehue,-39.46788,-71.55193,tres,ˈkʰɘ.lɐ̝,,1-küla.csv
998,Mariquina,-39.45147,-73.26457,tres,ˈkɘ.lɐ̝,,1-küla.csv
999,Lanco,-39.5046,-72.44441,tres,kʰlɐ̝,,1-küla.csv
1000,Panguipulli,-39.54399,-72.12614,tres,ˈkʰɘ.lɐ̝,,1-küla.csv
1001,Valdivia,-39.81291,-72.95438,tres,ˈkʰɘ.lɐ̝,,1-küla.csv
1002,San Pablo,-40.38308,-73.34988,tres,ˈkʰɘ.lɐ̝,,1-küla.csv
1003,S. Juan de la Costa,-40.51004,-73.52129,tres,ˈxɘ.lə,,1-küla.csv
1004,Chalileo,-36.42252,-66.47321,tres,kʰɘ.ˈlɐ̝,,1-küla.csv
1005,Picunches,-38.78279,-70.22884,tres,kɘ.ˈɮɐ̝,,1-küla.csv
1006,Zapala,-38.85047,-69.74997,tres,kɘ.ˈlɐ̝,,1-küla.csv
1007,Aluminé,-39.19681,-71.05406,tres,kʰɘ̆.ˈlɐ̝,,1-küla.csv
1008,Junín de los Andes,-39.82386,-71.28742,tres,kl̩.ˈlɐ̝,,1-küla.csv
1009,Huiliches,-39.63992,-71.18686,tres,kʰl̥̩.ˈlɐ̝,,1-küla.csv
1010,Jacobacci,-41.28813,-69.55719,tres,kɘ̆.ˈlɐ̝,,1-küla.csv
1011,Cushamen,-42.23392,-71.34994,tres,kʰɘ.ˈlɐ̝,,1-küla.csv
1012,Futaleufú,-42.95052,-71.18351,tres,kɘ.ˈlɐ̝,,1-küla.csv
1013,Lago Rosario,-43.24408,-71.32581,tres,kʰɘ.ˈlɐ̝,,1-küla.csv
1014,Ref. Spelling,-40.0,-75.5,camino,ʐɘpɘ,rüpü,10-rüpü.csv
1015,Santa Bárbara,-37.67405,-71.80186,camino,ˈʐ̞ɘ.pɘ,,10-rüpü.csv
1016,Cañete,-37.96722,-73.39282,camino,ˈɻɘ.pɘ,,10-rüpü.csv
1017,Tirúa,-38.3699,-73.49067,camino,ˈëɻ.pʊ̥,,10-rüpü.csv
1018,Alto Bío Bío,-38.04457,-71.36344,camino,ˈɻɘ.pɘ,,10-rüpü.csv
1019,Angol,-37.86289,-72.68304,camino,ˈɻɘ.pɘ,,10-rüpü.csv
1020,Lumaco,-38.17584,-72.89947,camino,ˈʐë.pʊ,,10-rüpü.csv
1021,Ercilla,-38.04926,-72.44544,camino,ɻ̩.ˈpɘ,,10-rüpü.csv
1022,Galvarino,-38.40865,-72.78342,camino,ˈɻɘ.pɘ,,10-rüpü.csv
1023,Victoria,-38.35303,-72.19395,camino,ɻɘ.ˈpɘ,,10-rüpü.csv
1024,Lonquimay,-38.42587,-71.37014,camino,ˈɻɘ.pɘ,,10-rüpü.csv
1025,Chol Chol,-38.51661,-72.97454,camino,ɻ̩ː.ˈpʊ,,10-rüpü.csv
1026,Dollinco,-38.67157,-72.82837,camino,ʐɘ.ˈpɘ,,10-rüpü.csv
1027,Vilcún,-38.59695,-72.31239,camino,ɻɘ.ˈpɘ,,10-rüpü.csv
1028,Puerto Saavedra,-38.78431,-73.39912,camino,ʐɘ.ˈpɘ,,10-rüpü.csv
1029,Truf Truf,-38.75576,-72.43983,camino,ˈr̝ɘ.pɘ,,10-rüpü.csv
1030,Icalma,-38.72338,-71.1847,camino,ɻɘ.ˈpɘ,,10-rüpü.csv
1031,Freire,-38.99144,-72.8833,camino,ɻɘ.ˈpɘ,,10-rüpü.csv
1032,Cunco,-38.97601,-72.01425,camino,ʐʊ.ˈpʊ,,10-rüpü.csv
1033,Nueva Toltén,-39.20931,-73.1312,camino,ˈɻɘ.pɘ,,10-rüpü.csv
1034,Villarrica,-39.48612,-72.3038,camino,ɻɘ.ˈpɘ,,10-rüpü.csv
1035,Curarrehue,-39.46788,-71.55193,camino,ɻɘ.ˈpɘ,,10-rüpü.csv
1036,Mariquina,-39.45147,-73.26457,camino,ˈɻɘ.pɪ,,10-rüpü.csv
1037,Lanco,-39.5046,-72.44441,camino,ˈɖ͡ʐɘ.pɘ,,10-rüpü.csv
1038,Panguipulli,-39.54399,-72.12614,camino,ˈɻɘ.pɘ,,10-rüpü.csv
1039,Valdivia,-39.81291,-72.95438,camino,ˈɻɘ.pɘ,,10-rüpü.csv
1040,San Pablo,-40.38308,-73.34988,camino,ˈʂʊ.bö,,10-rüpü.csv
1041,S. Juan de la Costa,-40.51004,-73.52129,camino,ˈʂɘ.pɘ,,10-rüpü.csv
1042,Chalileo,-36.42252,-66.47321,camino,ɻɘ.ˈpɘ,,10-rüpü.csv
1043,Picunches,-38.78279,-70.22884,camino,ɻɘ.ˈɸɘ,,10-rüpü.csv
1044,Zapala,-38.85047,-69.74997,camino,ʐɘ.ˈpɘ,,10-rüpü.csv
1045,Aluminé,-39.19681,-71.05406,camino,ʐɘ.ˈpɘ,,10-rüpü.csv
1046,Junín de los Andes,-39.82386,-71.28742,camino,ɻɘ.ˈɸɘ,,10-rüpü.csv
1047,Huiliches,-39.63992,-71.18686,camino,ɻɘ.ˈpɘ,,10-rüpü.csv
1048,Jacobacci,-41.28813,-69.55719,camino,ʐɘ.ˈpɘ,,10-rüpü.csv
1049,Cushamen,-42.23392,-71.34994,camino,ʐʊ.ˈpɘ,,10-rüpü.csv
1050,Futaleufú,-42.95052,-71.18351,camino,ʐɘ.ˈɸʊ,,10-rüpü.csv
1051,Lago Rosario,-43.24408,-71.32581,camino,ɻɘ.ˈpɘ,,10-rüpü.csv
1052,Ref. Spelling,-40.0,-75.5,noble,ɣɘlmën,gülmen,3-gülmen.csv
1053,Santa Bárbara,-37.67405,-71.80186,noble,ɣɘl.ˈmën,,3-gülmen.csv
1054,Cañete,-37.96722,-73.39282,noble,ɡɘl.ˈmën,,3-gülmen.csv
1055,Tirúa,-38.3699,-73.49067,noble,ˈɪl.mën,,3-gülmen.csv
1056,Alto Bío Bío,-38.04457,-71.36344,noble,ɘɮ.ˈmën,,3-gülmen.csv
1057,Lumaco,-38.17584,-72.89947,noble,ɣɘl.ˈmëɲ,,3-gülmen.csv
1058,Ercilla,-38.04926,-72.44544,noble,ɘl.ˈmën,,3-gülmen.csv
1059,Galvarino,-38.40865,-72.78342,noble,ɘl.ˈmën,,3-gülmen.csv
1060,Victoria,-38.35303,-72.19395,noble,ɘl.ˈmën,,3-gülmen.csv
1061,Chol Chol,-38.51661,-72.97454,noble,ɘl.ˈmën,,3-gülmen.csv
1062,Puerto Saavedra,-38.78431,-73.39912,noble,ɘl.ˈmën,,3-gülmen.csv
1063,Truf Truf,-38.75576,-72.43983,noble,ɘl.ˈmën,,3-gülmen.csv
1064,Icalma,-38.72338,-71.1847,noble,ɣɘl.ˈmën,,3-gülmen.csv
1065,Freire,-38.99144,-72.8833,noble,ɘl.ˈmën,,3-gülmen.csv
1066,Cunco,-38.97601,-72.01425,noble,ɘl.ˈmën,,3-gülmen.csv
1067,Nueva Toltén,-39.20931,-73.1312,noble,ˈʊl.mën,,3-gülmen.csv
1068,Villarrica,-39.48612,-72.3038,noble,ɘl.ˈmën,,3-gülmen.csv
1069,Curarrehue,-39.46788,-71.55193,noble,ɣɘl.ˈmën,,3-gülmen.csv
1070,Mariquina,-39.45147,-73.26457,noble,ɡɘ̆l.ˈmën,,3-gülmen.csv
1071,Lanco,-39.5046,-72.44441,noble,ɣɘl.ˈmën,,3-gülmen.csv
1072,Panguipulli,-39.54399,-72.12614,noble,ɣɘl.ˈmën,,3-gülmen.csv
1073,Valdivia,-39.81291,-72.95438,noble,ɘl.ˈmën,,3-gülmen.csv
1074,San Pablo,-40.38308,-73.34988,noble,ˈkɘl.mën,,3-gülmen.csv
1075,S. Juan de la Costa,-40.51004,-73.52129,noble,ɘl.ˈmën,,3-gülmen.csv
1076,Huiliches,-39.63992,-71.18686,noble,ɣɘl.ˈmën,,3-gülmen.csv
1077,Jacobacci,-41.28813,-69.55719,noble,ɘl.ˈmën,,3-gülmen.csv
1078,Futaleufú,-42.95052,-71.18351,noble,ʊɮ.ˈmën,,3-gülmen.csv
1079,Ref. Spelling,-40.0,-75.5,luna,kɘjën,küyen,7-küyen.csv
1080,Santa Bárbara,-37.67405,-71.80186,luna,kɘ.ˈjën,,7-küyen.csv
1081,Cañete,-37.96722,-73.39282,luna,ˈkʊ.ʎɪn,,7-küyen.csv
1082,Tirúa,-38.3699,-73.49067,luna,kʰɘ.ˈjën,,7-küyen.csv
1083,Alto Bío Bío,-38.04457,-71.36344,luna,kɘ.ˈjën,,7-küyen.csv
1084,Angol,-37.86289,-72.68304,luna,kɘ.ˈjën,,7-küyen.csv
1085,Lumaco,-38.17584,-72.89947,luna,kɘ.ˈʝën,,7-küyen.csv
1086,Ercilla,-38.04926,-72.44544,luna,kɘ.ˈjën,,7-küyen.csv
1087,Galvarino,-38.40865,-72.78342,luna,kʰɘ̆.ˈʝën,,7-küyen.csv
1088,Victoria,-38.35303,-72.19395,luna,kɘ̆.ˈjën,,7-küyen.csv
1089,Lonquimay,-38.42587,-71.37014,luna,kɘ.ˈʝën,,7-küyen.csv
1090,Chol Chol,-38.51661,-72.97454,luna,kʰɘ.ˈjën,,7-küyen.csv
1091,Dollinco,-38.67157,-72.82837,luna,kʰɘ.ˈʝën,,7-küyen.csv
1092,Vilcún,-38.59695,-72.31239,luna,kʰɘ.ˈʝën,,7-küyen.csv
1093,Puerto Saavedra,-38.78431,-73.39912,luna,kɘ.ˈjën,,7-küyen.csv
1094,Truf Truf,-38.75576,-72.43983,luna,kɘ.ˈʒën,,7-küyen.csv
1095,Icalma,-38.72338,-71.1847,luna,kʰɘ.ˈjën,,7-küyen.csv
1096,Freire,-38.99144,-72.8833,luna,kʰɘ.ˈjën,,7-küyen.csv
1097,Cunco,-38.97601,-72.01425,luna,kɘ.ˈʒën,,7-küyen.csv
1098,Nueva Toltén,-39.20931,-73.1312,luna,kʰɘ.ˈjën,,7-küyen.csv
1099,Villarrica,-39.48612,-72.3038,luna,kʰɘ̆.ˈʝën,,7-küyen.csv
1100,Curarrehue,-39.46788,-71.55193,luna,kʰɘ.ˈjën,,7-küyen.csv
1101,Mariquina,-39.45147,-73.26457,luna,kë.ˈjɪŋ,,7-küyen.csv
1102,Lanco,-39.5046,-72.44441,luna,kʰɘ.ˈjën,,7-küyen.csv
1103,Panguipulli,-39.54399,-72.12614,luna,kɘ.ˈjën,,7-küyen.csv
1104,Valdivia,-39.81291,-72.95438,luna,kʰɘ.ˈjën,,7-küyen.csv
1105,San Pablo,-40.38308,-73.34988,luna,cʰɪ.ˈjën,,7-küyen.csv
1106,Chalileo,-36.42252,-66.47321,luna,kʰʊ.ˈjën,,7-küyen.csv
1107,Picunches,-38.78279,-70.22884,luna,kʰɘ.ˈjën,,7-küyen.csv
1108,Zapala,-38.85047,-69.74997,luna,kʰɘ.ˈjën,,7-küyen.csv
1109,Aluminé,-39.19681,-71.05406,luna,ˌkʰɘ.ˈjën,,7-küyen.csv
1110,Junín de los Andes,-39.82386,-71.28742,luna,kɘ.ˈjën,,7-küyen.csv
1111,Huiliches,-39.63992,-71.18686,luna,kɘ.ˈjën,,7-küyen.csv
1112,Jacobacci,-41.28813,-69.55719,luna,kʰɘ.ˈjën,,7-küyen.csv
1113,Cushamen,-42.23392,-71.34994,luna,kʰɘ.ˈjën,,7-küyen.csv
1114,Futaleufú,-42.95052,-71.18351,luna,kʰɘ.ˈjën,,7-küyen.csv
1115,Lago Rosario,-43.24408,-71.32581,luna,kʰɘ.ˈjën,,7-küyen.csv
1116,Ref. Spelling,-40.0,-75.5,boca,wɘn̪,wün’,4-wün.csv
1117,Santa Bárbara,-37.67405,-71.80186,boca,wɘn,,4-wün.csv
1118,Cañete,-37.96722,-73.39282,boca,wɘn,,4-wün.csv
1119,Tirúa,-38.3699,-73.49067,boca,wɘn,,4-wün.csv
1120,Alto Bío Bío,-38.04457,-71.36344,boca,wɘn,,4-wün.csv
1121,Angol,-37.86289,-72.68304,boca,wɘn,,4-wün.csv
1122,Lumaco,-38.17584,-72.89947,boca,wɘn,,4-wün.csv
1123,Ercilla,-38.04926,-72.44544,boca,wɘn,,4-wün.csv
1124,Galvarino,-38.40865,-72.78342,boca,wɘn,,4-wün.csv
1125,Victoria,-38.35303,-72.19395,boca,vɘn,,4-wün.csv
1126,Lonquimay,-38.42587,-71.37014,boca,wɘn,,4-wün.csv
1127,Chol Chol,-38.51661,-72.97454,boca,wɘn,,4-wün.csv
1128,Dollinco,-38.67157,-72.82837,boca,wɘn,,4-wün.csv
1129,Vilcún,-38.59695,-72.31239,boca,wɘn,,4-wün.csv
1130,Puerto Saavedra,-38.78431,-73.39912,boca,ɡwɘn,,4-wün.csv
1131,Truf Truf,-38.75576,-72.43983,boca,wɘn,,4-wün.csv
1132,Icalma,-38.72338,-71.1847,boca,wɘn,,4-wün.csv
1133,Freire,-38.99144,-72.8833,boca,wɘn,,4-wün.csv
1134,Cunco,-38.97601,-72.01425,boca,wɘn,,4-wün.csv
1135,Nueva Toltén,-39.20931,-73.1312,boca,wɘn,,4-wün.csv
1136,Villarrica,-39.48612,-72.3038,boca,wɘn,,4-wün.csv
1137,Curarrehue,-39.46788,-71.55193,boca,wɘn,,4-wün.csv
1138,Mariquina,-39.45147,-73.26457,boca,wɘn,,4-wün.csv
1139,Lanco,-39.5046,-72.44441,boca,wɘn,,4-wün.csv
1140,Panguipulli,-39.54399,-72.12614,boca,wɘn,,4-wün.csv
1141,Valdivia,-39.81291,-72.95438,boca,wɘn,,4-wün.csv
1142,San Pablo,-40.38308,-73.34988,boca,m̩.ˈbɘn,,4-wün.csv
1143,S. Juan de la Costa,-40.51004,-73.52129,boca,wɘn̪,,4-wün.csv
1144,Chalileo,-36.42252,-66.47321,boca,wɘn,,4-wün.csv
1145,Picunches,-38.78279,-70.22884,boca,wɘn,,4-wün.csv
1146,Zapala,-38.85047,-69.74997,boca,wɘn,,4-wün.csv
1147,Aluminé,-39.19681,-71.05406,boca,ʊ.ˈɘn,,4-wün.csv
1148,Junín de los Andes,-39.82386,-71.28742,boca,wɘn,,4-wün.csv
1149,Huiliches,-39.63992,-71.18686,boca,wɘn,,4-wün.csv
1150,Jacobacci,-41.28813,-69.55719,boca,wɘn,,4-wün.csv
1151,Cushamen,-42.23392,-71.34994,boca,wɘn,,4-wün.csv
1152,Futaleufú,-42.95052,-71.18351,boca,wɘn,,4-wün.csv
1153,Lago Rosario,-43.24408,-71.32581,boca,wɘn,,4-wün.csv
1154,Ref. Spelling,-40.0,-75.5,persona_que_ensenya,ɐ̝θɘmtʃëfë,adümchefe,5-adümchefe.csv
1155,Santa Bárbara,-37.67405,-71.80186,persona_que_ensenya,ɐ̝.ˌðʊm.ˈt͡ʃë.vë,,5-adümchefe.csv
1156,Alto Bío Bío,-38.04457,-71.36344,persona_que_ensenya,ˌɐ̝.ðʊm.ˈt͡ʃë.ʋë,,5-adümchefe.csv
1157,Vilcún,-38.59695,-72.31239,persona_que_ensenya,ɐ̝.ˌðʊm.ˈt͡ʃë.vë,,5-adümchefe.csv
1158,Puerto Saavedra,-38.78431,-73.39912,persona_que_ensenya,ɐ̝.ˌθɘm.ˈt͡ʃë.fë,,5-adümchefe.csv
1159,Truf Truf,-38.75576,-72.43983,persona_que_ensenya,ɐ̝.ˌsɘm.t͡ʃë.ˈfë,,5-adümchefe.csv
1160,Icalma,-38.72338,-71.1847,persona_que_ensenya,ˌɐ̝.θʊ.mɘ̆.ˈʃë.fë,,5-adümchefe.csv
1161,Freire,-38.99144,-72.8833,persona_que_ensenya,ˌɐ̝.θʊm.ˈt͡ʃë.fë,,5-adümchefe.csv
1162,Nueva Toltén,-39.20931,-73.1312,persona_que_ensenya,ɐ̝.ˈθɘm.ˌt͡ʃë.fë,,5-adümchefe.csv
1163,Curarrehue,-39.46788,-71.55193,persona_que_ensenya,ɐ̝.ˌθʊm.t͡ʃë.ˈfë,,5-adümchefe.csv
1164,Mariquina,-39.45147,-73.26457,persona_que_ensenya,ɐ̝.ˌjɘn.ˈt͡ʃë.fë,,5-adümchefe.csv
1165,Lanco,-39.5046,-72.44441,persona_que_ensenya,ˌɐ̝.fɘn.ˈt͡ʃë.fë,,5-adümchefe.csv
1166,Panguipulli,-39.54399,-72.12614,persona_que_ensenya,ˌɐ̝.s̪ʊɲ.ˈt͡ʃë.fë,,5-adümchefe.csv
1167,Valdivia,-39.81291,-72.95438,persona_que_ensenya,ˌɐ̝.θɘm.ˈʃë.fë,,5-adümchefe.csv
1168,Junín de los Andes,-39.82386,-71.28742,persona_que_ensenya,ɐ̝.ˌθɘm.t̪ɘ̆.ˈfë,,5-adümchefe.csv
1169,Lago Rosario,-43.24408,-71.32581,persona_que_ensenya,ɐ̝.ˌθʊm.ˈt͡ʃë.fë,,5-adümchefe.csv
1170,Ref. Spelling,-40.0,-75.5,harina_tostada,mɘʐkë,mürke,9-mürke.csv
1171,Santa Bárbara,-37.67405,-71.80186,harina_tostada,ˈmɘɻ.kʰë,,9-mürke.csv
1172,Cañete,-37.96722,-73.39282,harina_tostada,mɘɻ.ˈcʰë,,9-mürke.csv
1173,Tirúa,-38.3699,-73.49067,harina_tostada,ˈmɘɻ.kë,,9-mürke.csv
1174,Alto Bío Bío,-38.04457,-71.36344,harina_tostada,ˈmɘɻ.kë,,9-mürke.csv
1175,Angol,-37.86289,-72.68304,harina_tostada,mɘɻ.ˈcʰë,,9-mürke.csv
1176,Lumaco,-38.17584,-72.89947,harina_tostada,ˈmɘɻ.cʰë,,9-mürke.csv
1177,Ercilla,-38.04926,-72.44544,harina_tostada,ˈmɘɻ.cʰë,,9-mürke.csv
1178,Galvarino,-38.40865,-72.78342,harina_tostada,ˈɱɘɻ.cë,,9-mürke.csv
1179,Victoria,-38.35303,-72.19395,harina_tostada,mɘɻ.ˈkʰë,,9-mürke.csv
1180,Lonquimay,-38.42587,-71.37014,harina_tostada,ˈmɘɻʂ.kʰë̥,,9-mürke.csv
1181,Chol Chol,-38.51661,-72.97454,harina_tostada,mɘɻ.ˈcʰë,,9-mürke.csv
1182,Dollinco,-38.67157,-72.82837,harina_tostada,mɘɻ.ˈcʰë,,9-mürke.csv
1183,Vilcún,-38.59695,-72.31239,harina_tostada,ˈmɘɻ.cʰë,,9-mürke.csv
1184,Puerto Saavedra,-38.78431,-73.39912,harina_tostada,ˈmɘɻ.cʰë,,9-mürke.csv
1185,Truf Truf,-38.75576,-72.43983,harina_tostada,ˈmɘʐ.kë,,9-mürke.csv
1186,Icalma,-38.72338,-71.1847,harina_tostada,mɻ̩.ˈcʰë,,9-mürke.csv
1187,Freire,-38.99144,-72.8833,harina_tostada,ˈmɘɻ.cë,,9-mürke.csv
1188,Cunco,-38.97601,-72.01425,harina_tostada,mɘʐ.ˈkʰë,,9-mürke.csv
1189,Nueva Toltén,-39.20931,-73.1312,harina_tostada,ˈmɘɻ.cʰë,,9-mürke.csv
1190,Villarrica,-39.48612,-72.3038,harina_tostada,mɘɻ.ˈcë,,9-mürke.csv
1191,Curarrehue,-39.46788,-71.55193,harina_tostada,mɘɻ.ˈkʰë,,9-mürke.csv
1192,Mariquina,-39.45147,-73.26457,harina_tostada,ˈmɘɻ.kʰë̥,,9-mürke.csv
1193,Lanco,-39.5046,-72.44441,harina_tostada,mɘɻ.ˈcʰë,,9-mürke.csv
1194,Panguipulli,-39.54399,-72.12614,harina_tostada,ˈmɘʃ.kë,,9-mürke.csv
1195,Valdivia,-39.81291,-72.95438,harina_tostada,ˈmɘɻ.cʰë,,9-mürke.csv
1196,San Pablo,-40.38308,-73.34988,harina_tostada,ˈmɘʂ.cʰḛ̈,,9-mürke.csv
1197,S. Juan de la Costa,-40.51004,-73.52129,harina_tostada,ˈmɘʂ.xë,,9-mürke.csv
1198,Zapala,-38.85047,-69.74997,harina_tostada,mɘɻ.ˈkë,,9-mürke.csv
1199,Aluminé,-39.19681,-71.05406,harina_tostada,mɘɻ.ˈcʰë,,9-mürke.csv
1200,Junín de los Andes,-39.82386,-71.28742,harina_tostada,mɘɻ.ˈcë,,9-mürke.csv
1201,Jacobacci,-41.28813,-69.55719,harina_tostada,mɘɻ.ˈkʰë,,9-mürke.csv
1202,Futaleufú,-42.95052,-71.18351,harina_tostada,mɘɻ.ˈkʰë,,9-mürke.csv
1203,Lago Rosario,-43.24408,-71.32581,harina_tostada,mɘɻ.ˈcʰë,,9-mürke.csv
1204,Ref. Spelling,-40.0,-75.5,vestido_lana,kɘpɐ̝m,küpam,14-küpam.csv
1205,Santa Bárbara,-37.67405,-71.80186,vestido_lana,hɘ.ˈpɘm,,14-küpam.csv
1206,Cañete,-37.96722,-73.39282,vestido_lana,kɘ̆.ˈpɐ̝n,,14-küpam.csv
1207,Tirúa,-38.3699,-73.49067,vestido_lana,kp̩̚.ˈɸɐ̝m,,14-küpam.csv
1208,Alto Bío Bío,-38.04457,-71.36344,vestido_lana,kp̩̚.ˈpɐ̝m,,14-küpam.csv
1209,Lumaco,-38.17584,-72.89947,vestido_lana,kʊ̆.ˈpɐ̝,,14-küpam.csv
1210,Galvarino,-38.40865,-72.78342,vestido_lana,kʰɘ.ˈpɐ̝m,,14-küpam.csv
1211,Lonquimay,-38.42587,-71.37014,vestido_lana,kʰɘ̆.ˈpɐ̝,,14-küpam.csv
1212,Chol Chol,-38.51661,-72.97454,vestido_lana,kʰɘ̆.ˈpɐ̝m,,14-küpam.csv
1213,Dollinco,-38.67157,-72.82837,vestido_lana,kʰɘ̆.ˈpɐ̝m,,14-küpam.csv
1214,Puerto Saavedra,-38.78431,-73.39912,vestido_lana,kɘ.ˈpɐ̝m,,14-küpam.csv
1215,Truf Truf,-38.75576,-72.43983,vestido_lana,kɘ.ˈpɐ̝m,,14-küpam.csv
1216,Icalma,-38.72338,-71.1847,vestido_lana,kɘ.ˈpɐ̝m,,14-küpam.csv
1217,Freire,-38.99144,-72.8833,vestido_lana,kɘ̆.ˈpɐ̝m,,14-küpam.csv
1218,Cunco,-38.97601,-72.01425,vestido_lana,kɘ̆.ˈpɐ̝m,,14-küpam.csv
1219,Nueva Toltén,-39.20931,-73.1312,vestido_lana,kɘ̆.ˈbɐ̝m,,14-küpam.csv
1220,Villarrica,-39.48612,-72.3038,vestido_lana,kɘ̆.ˈpɐ̝m,,14-küpam.csv
1221,Mariquina,-39.45147,-73.26457,vestido_lana,kɘ̆.ˈpɐ̝m,,14-küpam.csv
1222,Lanco,-39.5046,-72.44441,vestido_lana,kʊ.ˈpɐ̝m,,14-küpam.csv
1223,Panguipulli,-39.54399,-72.12614,vestido_lana,kɘ.ˈpɐ̝m,,14-küpam.csv
1224,Valdivia,-39.81291,-72.95438,vestido_lana,kɘ.ˈpɐ̝m,,14-küpam.csv
1225,Aluminé,-39.19681,-71.05406,vestido_lana,kʰɘ̆.ˈpɐ̝m,,14-küpam.csv
1226,Junín de los Andes,-39.82386,-71.28742,vestido_lana,kɘ̆.ˈpɐ̝m,,14-küpam.csv
1227,Huiliches,-39.63992,-71.18686,vestido_lana,kɘ̥̆.ˈpɐ̝m,,14-küpam.csv
1228,Cushamen,-42.23392,-71.34994,vestido_lana,kɘ.ˈpɐ̝n,,14-küpam.csv
1229,Futaleufú,-42.95052,-71.18351,vestido_lana,h̩.ˈpɐ̝n,,14-küpam.csv
1230,Lago Rosario,-43.24408,-71.32581,vestido_lana,kɘ.ˈpɐ̝m,,14-küpam.csv
1231,Ref. Spelling,-40.0,-75.5,nombre,ɘj,üy,5-üy.csv
1232,Santa Bárbara,-37.67405,-71.80186,nombre,ɘj,,5-üy.csv
1233,Cañete,-37.96722,-73.39282,nombre,ɘj,,5-üy.csv
1234,Alto Bío Bío,-38.04457,-71.36344,nombre,ɘj,,5-üy.csv
1235,Angol,-37.86289,-72.68304,nombre,ɘj,,5-üy.csv
1236,Lumaco,-38.17584,-72.89947,nombre,ɘj,,5-üy.csv
1237,Ercilla,-38.04926,-72.44544,nombre,ɘjç,,5-üy.csv
1238,Galvarino,-38.40865,-72.78342,nombre,ɘj,,5-üy.csv
1239,Victoria,-38.35303,-72.19395,nombre,ɘj,,5-üy.csv
1240,Lonquimay,-38.42587,-71.37014,nombre,ɘjç,,5-üy.csv
1241,Chol Chol,-38.51661,-72.97454,nombre,ɘj,,5-üy.csv
1242,Dollinco,-38.67157,-72.82837,nombre,ɣɘj,,5-üy.csv
1243,Vilcún,-38.59695,-72.31239,nombre,ɘj,,5-üy.csv
1244,Puerto Saavedra,-38.78431,-73.39912,nombre,ɘj,,5-üy.csv
1245,Truf Truf,-38.75576,-72.43983,nombre,ɘj,,5-üy.csv
1246,Icalma,-38.72338,-71.1847,nombre,ɘj,,5-üy.csv
1247,Freire,-38.99144,-72.8833,nombre,ɘj,,5-üy.csv
1248,Cunco,-38.97601,-72.01425,nombre,ɣɘjʒ,,5-üy.csv
1249,Nueva Toltén,-39.20931,-73.1312,nombre,ɘj,,5-üy.csv
1250,Villarrica,-39.48612,-72.3038,nombre,ɘj,,5-üy.csv
1251,Curarrehue,-39.46788,-71.55193,nombre,ɘj,,5-üy.csv
1252,Mariquina,-39.45147,-73.26457,nombre,ɣɘj,,5-üy.csv
1253,Lanco,-39.5046,-72.44441,nombre,ɣ̩.ˈɡɘj,,5-üy.csv
1254,Panguipulli,-39.54399,-72.12614,nombre,ɣɘj,,5-üy.csv
1255,Valdivia,-39.81291,-72.95438,nombre,ɘj,,5-üy.csv
1256,San Pablo,-40.38308,-73.34988,nombre,ɘj,,5-üy.csv
1257,Chalileo,-36.42252,-66.47321,nombre,ɘj,,5-üy.csv
1258,Picunches,-38.78279,-70.22884,nombre,ɘj,,5-üy.csv
1259,Aluminé,-39.19681,-71.05406,nombre,ɘj,,5-üy.csv
1260,Junín de los Andes,-39.82386,-71.28742,nombre,ŋ̩.ˈɡɘj,,5-üy.csv
1261,Huiliches,-39.63992,-71.18686,nombre,ɣɘj,,5-üy.csv
1262,Cushamen,-42.23392,-71.34994,nombre,ɘj,,5-üy.csv
1263,Futaleufú,-42.95052,-71.18351,nombre,ɣɘj,,5-üy.csv
1264,Lago Rosario,-43.24408,-71.32581,nombre,ɣɘj,,5-üy.csv
1265,Ref. Spelling,-40.0,-75.5,sangre,möʎfɘɲ,mollfüñ,4-mollfüñ.csv
1266,Santa Bárbara,-37.67405,-71.80186,sangre,ˈmöʎ.vɘn,,4-mollfüñ.csv
1267,Cañete,-37.96722,-73.39282,sangre,ˈmöʎ.vɘɲ,,4-mollfüñ.csv
1268,Tirúa,-38.3699,-73.49067,sangre,ˈmöʎ.vɘɪ̯,,4-mollfüñ.csv
1269,Alto Bío Bío,-38.04457,-71.36344,sangre,möʎ.ˈvɘɲ,,4-mollfüñ.csv
1270,Angol,-37.86289,-72.68304,sangre,möʎ.ˈvɘɲ,,4-mollfüñ.csv
1271,Lumaco,-38.17584,-72.89947,sangre,möʎ.ˈvɘɲ,,4-mollfüñ.csv
1272,Ercilla,-38.04926,-72.44544,sangre,möʎ.ˈfɘɲ,,4-mollfüñ.csv
1273,Galvarino,-38.40865,-72.78342,sangre,möʎ.ˈfɘɲ,,4-mollfüñ.csv
1274,Victoria,-38.35303,-72.19395,sangre,ˈmöʎ.fɘn,,4-mollfüñ.csv
1275,Lonquimay,-38.42587,-71.37014,sangre,möʎʎ̥.ˈfʷɘɲ,,4-mollfüñ.csv
1276,Chol Chol,-38.51661,-72.97454,sangre,möʎ.ˈfɘɲ,,4-mollfüñ.csv
1277,Dollinco,-38.67157,-72.82837,sangre,möʎ.ˈfɘɲ,,4-mollfüñ.csv
1278,Vilcún,-38.59695,-72.31239,sangre,möʎ.ˈfɘɲ,,4-mollfüñ.csv
1279,Puerto Saavedra,-38.78431,-73.39912,sangre,möʎ.ˈfɘɲ,,4-mollfüñ.csv
1280,Truf Truf,-38.75576,-72.43983,sangre,möʎ.ˈfʷɘɲ,,4-mollfüñ.csv
1281,Icalma,-38.72338,-71.1847,sangre,möʎ.ˈfɘɲ,,4-mollfüñ.csv
1282,Freire,-38.99144,-72.8833,sangre,möʎ.ˈfɘɲ,,4-mollfüñ.csv
1283,Cunco,-38.97601,-72.01425,sangre,möʎ.ˈfɘn,,4-mollfüñ.csv
1284,Nueva Toltén,-39.20931,-73.1312,sangre,möʎ.ˈfɘɲ,,4-mollfüñ.csv
1285,Villarrica,-39.48612,-72.3038,sangre,möʎ.ˈfɘɲ,,4-mollfüñ.csv
1286,Curarrehue,-39.46788,-71.55193,sangre,möʎ.ˈfɘɲ,,4-mollfüñ.csv
1287,Mariquina,-39.45147,-73.26457,sangre,möʎ.ˈfɘ̆n,,4-mollfüñ.csv
1288,Lanco,-39.5046,-72.44441,sangre,möl̠.ˈɸ̞ɘɲ,,4-mollfüñ.csv
1289,Panguipulli,-39.54399,-72.12614,sangre,möʎ.ˈfʷëɲ,,4-mollfüñ.csv
1290,Valdivia,-39.81291,-72.95438,sangre,möʎ.ˈfɘɲ,,4-mollfüñ.csv
1291,San Pablo,-40.38308,-73.34988,sangre,möʎ̝.ˈfɘn,,4-mollfüñ.csv
1292,S. Juan de la Costa,-40.51004,-73.52129,sangre,mʷöʎ̝̥.vɘn,,4-mollfüñ.csv
1293,Chalileo,-36.42252,-66.47321,sangre,möʎ.ˈvɘn,,4-mollfüñ.csv
1294,Picunches,-38.78279,-70.22884,sangre,möʎ.ˈvɘɲ,,4-mollfüñ.csv
1295,Zapala,-38.85047,-69.74997,sangre,möʎ.ˈfɘɲ,,4-mollfüñ.csv
1296,Aluminé,-39.19681,-71.05406,sangre,möʎ.ˈfɘɲ,,4-mollfüñ.csv
1297,Junín de los Andes,-39.82386,-71.28742,sangre,möʎ.ˈfʷɪɲ,,4-mollfüñ.csv
1298,Huiliches,-39.63992,-71.18686,sangre,möʎf.ˈʋɘɲ,,4-mollfüñ.csv
1299,Jacobacci,-41.28813,-69.55719,sangre,möʎ.ˈfʷɘɲ,,4-mollfüñ.csv
1300,Cushamen,-42.23392,-71.34994,sangre,möʎ.ˈfɘɲ,,4-mollfüñ.csv
1301,Futaleufú,-42.95052,-71.18351,sangre,möʎ.ˈfwɪ̃,,4-mollfüñ.csv
1302,Lago Rosario,-43.24408,-71.32581,sangre,möʎ.ˈfɘn,,4-mollfüñ.csv
1303,Ref. Spelling,-40.0,-75.5,vino,pʊlkɘ,pulkü,9-pulkü.csv
1304,Santa Bárbara,-37.67405,-71.80186,vino,ˈpʊl.kʊ,,9-pulkü.csv
1305,Cañete,-37.96722,-73.39282,vino,pʰɘl.kʰö,,9-pulkü.csv
1306,Tirúa,-38.3699,-73.49067,vino,ˈpɘl.kö,,9-pulkü.csv
1307,Alto Bío Bío,-38.04457,-71.36344,vino,ˈpʊl.kö,,9-pulkü.csv
1308,Angol,-37.86289,-72.68304,vino,ˈpʊl.kʊ,,9-pulkü.csv
1309,Lumaco,-38.17584,-72.89947,vino,ˈpʊl.kʊ̥,,9-pulkü.csv
1310,Ercilla,-38.04926,-72.44544,vino,ˈpɘ̆l.kɘ̥,,9-pulkü.csv
1311,Galvarino,-38.40865,-72.78342,vino,ˈpʊl.kʊ,,9-pulkü.csv
1312,Victoria,-38.35303,-72.19395,vino,pʰʊl.ˈkʊ,,9-pulkü.csv
1313,Lonquimay,-38.42587,-71.37014,vino,ˈpʊlɬ.kʊ̥,,9-pulkü.csv
1314,Chol Chol,-38.51661,-72.97454,vino,pʊl.ˈkʊ,,9-pulkü.csv
1315,Dollinco,-38.67157,-72.82837,vino,pʰʊl.ˈkɘ,,9-pulkü.csv
1316,Vilcún,-38.59695,-72.31239,vino,ˈpʰʊl.kʊ,,9-pulkü.csv
1317,Puerto Saavedra,-38.78431,-73.39912,vino,ˈpʊl.kʊ,,9-pulkü.csv
1318,Truf Truf,-38.75576,-72.43983,vino,ˈpʊlɬ.kö,,9-pulkü.csv
1319,Icalma,-38.72338,-71.1847,vino,ˈpʊl.kʊ,,9-pulkü.csv
1320,Freire,-38.99144,-72.8833,vino,ˈpʊl.kʊ,,9-pulkü.csv
1321,Cunco,-38.97601,-72.01425,vino,pʊl.ˈkʊ,,9-pulkü.csv
1322,Nueva Toltén,-39.20931,-73.1312,vino,ˈbʊl.kʊ,,9-pulkü.csv
1323,Villarrica,-39.48612,-72.3038,vino,ˈpʊl.kʊ,,9-pulkü.csv
1324,Curarrehue,-39.46788,-71.55193,vino,pʊl.ˈkʊ,,9-pulkü.csv
1325,Mariquina,-39.45147,-73.26457,vino,ˈpɘ̆l.kʊ,,9-pulkü.csv
1326,Lanco,-39.5046,-72.44441,vino,pʊl.ˈkʰʊ,,9-pulkü.csv
1327,Panguipulli,-39.54399,-72.12614,vino,ˈpʊl.kö,,9-pulkü.csv
1328,Valdivia,-39.81291,-72.95438,vino,ˈpʊl.kʰʊ,,9-pulkü.csv
1329,San Pablo,-40.38308,-73.34988,vino,ˈbɘl.kʊ,,9-pulkü.csv
1330,S. Juan de la Costa,-40.51004,-73.52129,vino,ˈpʊɬ.kʊ,,9-pulkü.csv
1331,Chalileo,-36.42252,-66.47321,vino,bʊl.ˈkʊ,,9-pulkü.csv
1332,Picunches,-38.78279,-70.22884,vino,ɸʊl.ˈkʊ,,9-pulkü.csv
1333,Zapala,-38.85047,-69.74997,vino,ɸʊl.ˈkʊ,,9-pulkü.csv
1334,Aluminé,-39.19681,-71.05406,vino,hʊl.ˈkʊ,,9-pulkü.csv
1335,Junín de los Andes,-39.82386,-71.28742,vino,pʊl.ˈkʊ,,9-pulkü.csv
1336,Huiliches,-39.63992,-71.18686,vino,pʊl.ˈkʊ,,9-pulkü.csv
1337,Jacobacci,-41.28813,-69.55719,vino,ɸʊl.ˈkʰʊ,,9-pulkü.csv
1338,Cushamen,-42.23392,-71.34994,vino,pʰʊl.ˈkʰʊ,,9-pulkü.csv
1339,Futaleufú,-42.95052,-71.18351,vino,ɸʊl.ˈxʊ,,9-pulkü.csv
1340,Lago Rosario,-43.24408,-71.32581,vino,pʊl.ˈkʊ,,9-pulkü.csv
